{
"type": "FeatureCollection",
"name": "06_BACIA DO ANHNADUI",
"crs": { "type": "name", "properties": { "name": "urn:ogc:def:crs:EPSG::31981" } },
"features": [
{ "type": "Feature", "properties": { "PERIMT_KM": 294.5447, "AREA_KM": 3063.116, "AREA_M2": 3063116035.0, "AREA_HA": 306311.6035 }, "geometry": { "type": "MultiPolygon", "coordinates": [ [ [ [ 782414.546103515895084, 7673657.600478298030794, 0.0 ], [ 782414.68830353138037, 7673657.600478248670697, 0.0 ], [ 782306.784238180145621, 7673499.975099427625537, 0.0 ], [ 782082.000864916830324, 7673353.001462144777179, 0.0 ], [ 781917.736100740963593, 7673214.673304792493582, 0.0 ], [ 781692.952724638045765, 7673059.05416657589376, 0.0 ], [ 781450.878231992712244, 7672860.207429897040129, 0.0 ], [ 781208.80385437165387, 7672704.58829758502543, 0.0 ], [ 780940.792877262458205, 7672557.614675041288137, 0.0 ], [ 780586.326797693502158, 7672427.932083940133452, 0.0 ], [ 780231.860642004408874, 7672367.413599694147706, 0.0 ], [ 780076.241465298691764, 7672479.805364519357681, 0.0 ], [ 779868.749204204184934, 7672652.715653268620372, 0.0 ], [ 779618.029453565366566, 7672868.853561215102673, 0.0 ], [ 779384.600592662580311, 7673050.409459691494703, 0.0 ], [ 779159.817317717359401, 7673188.737750771455467, 0.0 ], [ 778917.743035063147545, 7673309.775045951828361, 0.0 ], [ 778641.086645939736627, 7673422.166752008721232, 0.0 ], [ 778502.758435111958534, 7673430.812300140038133, 0.0 ], [ 778329.848109031328931, 7673404.875856509432197, 0.0 ], [ 778200.165351877454668, 7673275.19318749755621, 0.0 ], [ 778087.773687637993135, 7673119.574009942822158, 0.0 ], [ 777984.027415455784649, 7672938.018226819112897, 0.0 ], [ 777880.28123153722845, 7672721.880440210923553, 0.0 ], [ 777741.9529324893374, 7672471.160661930218339, 0.0 ], [ 777620.915644050808623, 7672246.377280435524881, 0.0 ], [ 777499.878361561335623, 7672038.885000726208091, 0.0 ], [ 777387.48657409590669, 7671814.101716376841068, 0.0 ], [ 776972.501836837618612, 7671234.852499516680837, 0.0 ], [ 776911.983163445722312, 7671036.005700288340449, 0.0 ], [ 776790.94588131364435, 7670828.513420790433884, 0.0 ], [ 776652.617612242698669, 7670664.248751467093825, 0.0 ], [ 776419.188725310377777, 7670474.04751184117049, 0.0 ], [ 776246.278344277059659, 7670283.846251690760255, 0.0 ], [ 776194.405189526034519, 7670136.872554814442992, 0.0 ], [ 776099.304501395439729, 7669903.44376412127167, 0.0 ], [ 776012.849302432266995, 7669635.432867186143994, 0.0 ], [ 775506.846012866008095, 7668032.891083492897451, 0.0 ], [ 775359.872185319196433, 7667695.716100974008441, 0.0 ], [ 775135.088788653025404, 7667470.932855498045683, 0.0 ], [ 774893.014399267849512, 7667272.086118306033313, 0.0 ], [ 774158.145545568084344, 7666718.77351357974112, 0.0 ], [ 774063.044872937258333, 7666528.572227705270052, 0.0 ], [ 774045.753663823008537, 7666208.688303600996733, 0.0 ], [ 774149.499745295615867, 7665828.285633305087686, 0.0 ], [ 774140.854180547990836, 7665638.084318569861352, 0.0 ], [ 774063.044532850617543, 7665517.04723353125155, 0.0 ], [ 773864.19764817354735, 7665318.200481997802854, 0.0 ], [ 773604.832149481168017, 7665093.417248393408954, 0.0 ], [ 773371.403293836861849, 7664989.671117181889713, 0.0 ], [ 773163.910955049446784, 7664929.15258118789643, 0.0 ], [ 772835.381393940537237, 7664834.052082499489188, 0.0 ], [ 772653.825545972096734, 7664738.951434543356299, 0.0 ], [ 772567.370386248920113, 7664583.332249235361814, 0.0 ], [ 772505.810850012814626, 7663893.101307105273008, 0.0 ], [ 772463.623988033272326, 7663718.781005460768938, 0.0 ], [ 772403.10530471149832, 7663485.352104663848877, 0.0 ], [ 772325.295562141574919, 7663079.013094226829708, 0.0 ], [ 772221.549269386683591, 7662828.293206504546106, 0.0 ], [ 772065.929954904480837, 7662525.700331561267376, 0.0 ], [ 771944.892678124364465, 7662326.853554336354136, 0.0 ], [ 771780.627900581690483, 7662136.652292327955365, 0.0 ], [ 771625.008526735706255, 7661955.096528206951916, 0.0 ], [ 771495.325863811536692, 7661799.477357738651335, 0.0 ], [ 771348.35199082759209, 7661617.921590763144195, 0.0 ], [ 771184.087170411134139, 7661298.037717485800385, 0.0 ], [ 771132.213971090735868, 7661012.735809918493032, 0.0 ], [ 771210.023468303726986, 7660684.206255561672151, 0.0 ], [ 771313.769610796356574, 7660485.359403863549232, 0.0 ], [ 771478.034269803669304, 7660321.094635013490915, 0.0 ], [ 771694.172012884053402, 7660096.311243675649166, 0.0 ], [ 771918.955324824200943, 7659776.427141334861517, 0.0 ], [ 772083.219922939082608, 7659430.606557065621018, 0.0 ], [ 772230.193441500654444, 7658851.357158996164799, 0.0 ], [ 772204.256835396634415, 7658540.11864151712507, 0.0 ], [ 772126.447168433805928, 7658358.562952313572168, 0.0 ], [ 771988.118890839046799, 7658159.716181905940175, 0.0 ], [ 771400.223738863598555, 7657545.884927038103342, 0.0 ], [ 771235.959008449455723, 7657494.011877461336553, 0.0 ], [ 770993.884571840288118, 7657442.138853739947081, 0.0 ], [ 770665.355113999452442, 7657347.038355117663741, 0.0 ], [ 770501.090269320877269, 7657251.937801854684949, 0.0 ], [ 770345.471025365637615, 7657156.837145700119436, 0.0 ], [ 770181.206295100157149, 7657104.964095938019454, 0.0 ], [ 769818.094631889136508, 7657001.218107779510319, 0.0 ], [ 769541.438135568168946, 7656776.434880992397666, 0.0 ], [ 769541.438049749936908, 7656517.069459876976907, 0.0 ], [ 769619.247698646271601, 7656344.159220095723867, 0.0 ], [ 769766.221338608535007, 7656128.021253954619169, 0.0 ], [ 769999.650056578684598, 7655825.42825223505497, 0.0 ], [ 770241.724334885831922, 7655401.798038009554148, 0.0 ], [ 770371.406792825553566, 7654943.585758498869836, 0.0 ], [ 770388.697782221133821, 7654606.410726085305214, 0.0 ], [ 770345.470084222732112, 7654321.108817968517542, 0.0 ], [ 770233.078301094472408, 7654096.325537641532719, 0.0 ], [ 769472.272848834400065, 7653205.837920503690839, 0.0 ], [ 769308.008087967988104, 7653058.864263509400189, 0.0 ], [ 769135.097826521843672, 7652911.890609366819263, 0.0 ], [ 768893.023354304721579, 7652747.625976730138063, 0.0 ], [ 768676.885492654750124, 7652609.297837478108704, 0.0 ], [ 768486.684135844814591, 7652479.615190304815769, 0.0 ], [ 768357.001383548136801, 7652349.932523171417415, 0.0 ], [ 768080.344889194471762, 7652125.149297218769789, 0.0 ], [ 767838.27050036250148, 7651909.01156051736325, 0.0 ], [ 767656.714613222517073, 7651684.228203265927732, 0.0 ], [ 767501.095342261949554, 7651502.672540758736432, 0.0 ], [ 767371.412564728874713, 7651295.180267809890211, 0.0 ], [ 767310.893906431272626, 7651130.915475415065885, 0.0 ], [ 767276.311861374415457, 7651001.232877112925053, 0.0 ], [ 767284.95727118733339, 7650724.576453745365143, 0.0 ], [ 767293.602686667814851, 7650465.211031744256616, 0.0 ], [ 767146.628845717292279, 7650067.517450757324696, 0.0 ], [ 766991.009561001090333, 7649842.734185370616615, 0.0 ], [ 766566.098834453616291, 7649242.223681008443236, 0.0 ], [ 766137.758804581477307, 7649242.223821128718555, 0.0 ], [ 765440.425515428651124, 7649424.643761938437819, 0.0 ], [ 764771.839247386204079, 7649666.71829717233777, 0.0 ], [ 764402.964047680608928, 7649747.409922901540995, 0.0 ], [ 764114.78043210809119, 7650070.175839976407588, 0.0 ], [ 763941.870250657550059, 7650473.633125653490424, 0.0 ], [ 763792.01484081230592, 7650784.871597195975482, 0.0 ], [ 763734.378081489587203, 7650923.199826114811003, 0.0 ], [ 763619.10465904395096, 7651188.328983156010509, 0.0 ], [ 763515.358641092083417, 7651464.985437397845089, 0.0 ], [ 763423.139916447689757, 7651718.587186260148883, 0.0 ], [ 763377.030606297543272, 7652006.770922889001667, 0.0 ], [ 763400.085408648941666, 7652318.009439000859857, 0.0 ], [ 763457.72218373650685, 7652537.029037015512586, 0.0 ], [ 763492.304349687416106, 7652732.994040781632066, 0.0 ], [ 763446.195002208696678, 7652905.904268932528794, 0.0 ], [ 762604.698518187738955, 7653459.217383280396461, 0.0 ], [ 762224.296023112954572, 7653562.963713864795864, 0.0 ], [ 761901.530206324998289, 7653586.018519500270486, 0.0 ], [ 761601.819135680096224, 7653747.401528330519795, 0.0 ], [ 761255.998679928015918, 7653966.421256361529231, 0.0 ], [ 761002.397034668596461, 7654196.968355657532811, 0.0 ], [ 760841.014170435373671, 7654346.824019083753228, 0.0 ], [ 760587.412517564021982, 7654554.316416542977095, 0.0 ], [ 760264.646744543802924, 7654715.6994324401021, 0.0 ], [ 759999.517664769897237, 7654842.50032711122185, 0.0 ], [ 759768.970720652258024, 7655073.047418903559446, 0.0 ], [ 759619.115282624028623, 7655303.594484977424145, 0.0 ], [ 759538.423882914707065, 7655637.887737343087792, 0.0 ], [ 759503.841946336440742, 7655845.380064971745014, 0.0 ], [ 759515.36936107557267, 7656202.727890037000179, 0.0 ], [ 759457.732726326095872, 7656421.74762608576566, 0.0 ], [ 759400.096009899396449, 7656698.404066866263747, 0.0 ], [ 759377.041388825513422, 7656952.005794852040708, 0.0 ], [ 759330.932054898934439, 7657171.025427419692278, 0.0 ], [ 759238.713339281850494, 7657459.209280401468277, 0.0 ], [ 759181.076697028824128, 7657655.17421486414969, 0.0 ], [ 759111.912653823499568, 7657851.139253040775657, 0.0 ], [ 758996.639188551576808, 7657989.467501139268279, 0.0 ], [ 758812.201624994166195, 7658150.850473130121827, 0.0 ], [ 758650.818766885320656, 7658323.760738753713667, 0.0 ], [ 758408.744413140346296, 7658531.253132859244943, 0.0 ], [ 758143.615461047738791, 7658750.272935215383768, 0.0 ], [ 757866.959129765396938, 7659038.456747004762292, 0.0 ], [ 757590.302769131958485, 7659234.421851014718413, 0.0 ], [ 757382.810499478364363, 7659384.277429231442511, 0.0 ], [ 757267.537033695494756, 7659522.605677340179682, 0.0 ], [ 757267.537106486270204, 7659753.152696896344423, 0.0 ], [ 757186.845768957980908, 7659972.172341007739305, 0.0 ], [ 757083.099604011978954, 7660110.500585548579693, 0.0 ], [ 756852.552621222799644, 7660225.774168102070689, 0.0 ], [ 756564.368882762501016, 7660179.664854945614934, 0.0 ], [ 756368.403859237441793, 7660156.610214650630951, 0.0 ], [ 756114.80214543628972, 7660179.664996367879212, 0.0 ], [ 755872.727843437576666, 7660237.301877342164516, 0.0 ], [ 755653.708150555379689, 7660317.993352990597486, 0.0 ], [ 755469.270603878656402, 7660537.013129617087543, 0.0 ], [ 755411.633993008872494, 7660836.724273484200239, 0.0 ], [ 755411.634079719078727, 7661113.380697397515178, 0.0 ], [ 755446.216176579589956, 7661413.091812571510673, 0.0 ], [ 755480.798348164535128, 7661632.111420812085271, 0.0 ], [ 755503.853118787403218, 7661851.131132722832263, 0.0 ], [ 755607.59942284761928, 7662473.608054911717772, 0.0 ], [ 755619.126878070528619, 7662646.518266584724188, 0.0 ], [ 755665.236347128171474, 7662854.010570509359241, 0.0 ], [ 755699.818411593558267, 7663049.975577080622315, 0.0 ], [ 755745.927887929021381, 7663280.522583167999983, 0.0 ], [ 755768.982658660621382, 7663499.54219551756978, 0.0 ], [ 755676.763941031880677, 7663787.726050312630832, 0.0 ], [ 755434.689674050896429, 7663960.636341778561473, 0.0 ], [ 755158.033282278804109, 7664064.382637785747647, 0.0 ], [ 754789.158089538570493, 7664191.183564627543092, 0.0 ], [ 754466.392315139761195, 7664364.09398110024631, 0.0 ], [ 754166.681242643506266, 7664537.004290295764804, 0.0 ], [ 753982.243683817330748, 7664721.441964552737772, 0.0 ], [ 753890.024958230322227, 7664986.571117459796369, 0.0 ], [ 753924.607033123844303, 7665217.118127784691751, 0.0 ], [ 753970.716487515019253, 7665378.501028226688504, 0.0 ], [ 753993.771268595592119, 7665632.102744374424219, 0.0 ], [ 753947.66194346442353, 7665885.704482151195407, 0.0 ], [ 753774.75177814241033, 7666047.087450936436653, 0.0 ], [ 753463.513293079915456, 7666185.415760591626167, 0.0 ], [ 753129.220212987507693, 7666346.798779457807541, 0.0 ], [ 752875.618522204575129, 7666450.544967815279961, 0.0 ], [ 752506.743324461509474, 7666565.818592897616327, 0.0 ], [ 752218.559533955645747, 7666681.092192865908146, 0.0 ], [ 752034.121949253836647, 7666784.838459603488445, 0.0 ], [ 751941.903204979607835, 7666992.330807540565729, 0.0 ], [ 751803.575077795539983, 7667268.987276270054281, 0.0 ], [ 751768.993142262334004, 7667488.006907597184181, 0.0 ], [ 751699.829107079072855, 7667718.553950751200318, 0.0 ], [ 751538.446288220817223, 7668029.792530082166195, 0.0 ], [ 751192.625795267987996, 7668156.593448763713241, 0.0 ], [ 750754.586472369031981, 7668214.230389087460935, 0.0 ], [ 750466.402645621565171, 7668214.230477665551007, 0.0 ], [ 750247.383035910548642, 7668248.812548212707043, 0.0 ], [ 749797.816336551797576, 7668387.140899263322353, 0.0 ], [ 749544.214630606700666, 7668444.777782423421741, 0.0 ], [ 749209.921517109498382, 7668502.414590174332261, 0.0 ], [ 749013.956644622376189, 7668652.270164385437965, 0.0 ], [ 748898.683225356391631, 7668951.981328342109919, 0.0 ], [ 748898.683316844864748, 7669251.692457215860486, 0.0 ], [ 748817.991900712368079, 7669551.403610824607313, 0.0 ], [ 748760.355290219886228, 7669862.642158622853458, 0.0 ], [ 748702.718586714589037, 7670196.935308790765703, 0.0 ], [ 748691.191362959798425, 7670450.537037115544081, 0.0 ], [ 748656.6093158966396, 7670634.974665756337345, 0.0 ], [ 748622.027389903785661, 7670888.576401248574257, 0.0 ], [ 748437.58982135169208, 7671049.959373373538256, 0.0 ], [ 748264.679525762912817, 7671119.123532863333821, 0.0 ], [ 747953.441102787852287, 7671142.178329830989242, 0.0 ], [ 747676.784676128067076, 7671142.178413899615407, 0.0 ], [ 746662.377795818960294, 7671199.81552704796195, 0.0 ], [ 746189.756374611635692, 7671280.507077840156853, 0.0 ], [ 745786.299166942131706, 7671384.253409808501601, 0.0 ], [ 745521.170093380380422, 7671557.163706818595529, 0.0 ], [ 745175.349639596650377, 7671822.292937222868204, 0.0 ], [ 744910.220686531276442, 7672064.367341032251716, 0.0 ], [ 744668.146318272687495, 7672248.805032134056091, 0.0 ], [ 744391.489915431011468, 7672329.496623165905476, 0.0 ], [ 744195.524982463568449, 7672283.3872772436589, 0.0 ], [ 744011.087195443804376, 7671718.547076070681214, 0.0 ], [ 744011.087112665758468, 7671441.890648599714041, 0.0 ], [ 744011.087019539671019, 7671130.65221781283617, 0.0 ], [ 743930.395453152945265, 7670934.687222627922893, 0.0 ], [ 743769.012413600692526, 7670519.702630121260881, 0.0 ], [ 743492.35599061101675, 7670531.23011390119791, 0.0 ], [ 743135.008235513465479, 7670796.359246540814638, 0.0 ], [ 742800.715106425224803, 7671142.179880207404494, 0.0 ], [ 742512.531454090960324, 7671395.781691028736532, 0.0 ], [ 742109.074156183516607, 7671534.110024614259601, 0.0 ], [ 741843.945130526204593, 7671534.110103277489543, 0.0 ], [ 741636.452711400343105, 7671199.817031693644822, 0.0 ], [ 741578.815772668924183, 7670750.250304490327835, 0.0 ], [ 741532.706265825312585, 7670404.429784260690212, 0.0 ], [ 741371.323244661325589, 7670047.081997180357575, 0.0 ], [ 741175.358332877280191, 7670070.13675740826875, 0.0 ], [ 741129.249078474589624, 7670577.340220585465431, 0.0 ], [ 741083.139735409989953, 7670784.83255457598716, 0.0 ], [ 741002.448336689732969, 7671153.707814746536314, 0.0 ], [ 741002.448398008593358, 7671361.200135253369808, 0.0 ], [ 740979.393811591085978, 7671753.130080943927169, 0.0 ], [ 740898.702488887123764, 7672041.313833493739367, 0.0 ], [ 740645.100849226815626, 7672329.497737166471779, 0.0 ], [ 740414.553864074405283, 7672456.298617864958942, 0.0 ], [ 740218.588861870812252, 7672513.935481386259198, 0.0 ], [ 740045.678665291052312, 7672583.099639242514968, 0.0 ], [ 739815.131686754059047, 7672732.955222127959132, 0.0 ], [ 739515.420618256554008, 7672940.447631100192666, 0.0 ], [ 739342.510438438970596, 7673067.24859465751797, 0.0 ], [ 739204.182282268768176, 7673263.213555058464408, 0.0 ], [ 739031.272053010761738, 7673562.924736155197024, 0.0 ], [ 738777.670405464828946, 7673828.053937420248985, 0.0 ], [ 738143.66618611139711, 7673977.909638056531549, 0.0 ], [ 737636.462769121164456, 7674093.183297758921981, 0.0 ], [ 737186.896024234243669, 7674093.183428609743714, 0.0 ], [ 736691.220001507666893, 7674185.402382023632526, 0.0 ], [ 736184.016600879142061, 7674358.312846753746271, 0.0 ], [ 735630.703822049777955, 7674623.442034004256129, 0.0 ], [ 735215.719260130776092, 7674900.098582275211811, 0.0 ], [ 735031.281678071944043, 7675026.899548531509936, 0.0 ], [ 734881.426135961082764, 7675280.501317944377661, 0.0 ], [ 734777.680121664889157, 7675614.794482531957328, 0.0 ], [ 734604.769936684519053, 7676075.888580394908786, 0.0 ], [ 734420.33243044721894, 7676467.818574517965317, 0.0 ], [ 734212.840205101994798, 7676802.111869321204722, 0.0 ], [ 734074.512023910414428, 7676917.385421192273498, 0.0 ], [ 733820.910294418456033, 7676905.858092694543302, 0.0 ], [ 733543.61339676566422, 7676664.744446683675051, 0.0 ], [ 733389.915319387917407, 7676449.567268025130033, 0.0 ], [ 733251.587008507107385, 7676111.431672127917409, 0.0 ], [ 733051.77944317960646, 7675604.228276308625937, 0.0 ], [ 732790.492737673921511, 7675327.571922180242836, 0.0 ], [ 732483.096627691760659, 7675050.91558120585978, 0.0 ], [ 732022.002550542121753, 7674943.327101372182369, 0.0 ], [ 731407.210510359262116, 7675020.176283937878907, 0.0 ], [ 730915.376917288871482, 7675219.98384396918118, 0.0 ], [ 730546.501753823948093, 7675481.270575387403369, 0.0 ], [ 730177.626629151054658, 7675880.885521134361625, 0.0 ], [ 729900.970317890285514, 7676295.870242537930608, 0.0 ], [ 729762.642311932635494, 7676680.11532187089324, 0.0 ], [ 729685.793403544230387, 7677033.620780809782445, 0.0 ], [ 729624.314296681201085, 7677387.126235563308001, 0.0 ], [ 729562.835163814015687, 7677648.41288064327091, 0.0 ], [ 729470.616401763865724, 7677817.480724603869021, 0.0 ], [ 729270.809062979649752, 7678109.507011983543634, 0.0 ], [ 729071.001711105229333, 7678355.42389446310699, 0.0 ], [ 728717.496364472433925, 7678678.189828338101506, 0.0 ], [ 728533.058801, 7678877.997301565483212, 0.0 ], [ 728256.402419078047387, 7679047.06519727408886, 0.0 ], [ 727872.157404176658019, 7679139.284114649519324, 0.0 ], [ 727672.349970149924047, 7679093.17476543225348, 0.0 ], [ 727334.214377175318077, 7679246.872876351699233, 0.0 ], [ 727011.448607087135315, 7679477.419991233386099, 0.0 ], [ 726765.531866363366134, 7679784.815993074327707, 0.0 ], [ 726673.313116295496002, 7679999.993242192082107, 0.0 ], [ 726519.615185181610286, 7680307.389318532310426, 0.0 ], [ 726458.136034029419534, 7680507.196757540106773, 0.0 ], [ 725705.015914544812404, 7681091.24943059310317, 0.0 ], [ 725382.250160240801051, 7681383.275752157904208, 0.0 ], [ 725120.963629366131499, 7681736.781263592652977, 0.0 ], [ 724982.635460884077474, 7681905.84912059083581, 0.0 ], [ 724844.307296579238027, 7682090.286779320798814, 0.0 ], [ 724675.239524606964551, 7682259.354644811712205, 0.0 ], [ 724383.213360177236609, 7682505.271552743390203, 0.0 ], [ 724029.707997227320448, 7682781.928080981597304, 0.0 ], [ 723706.942224802565761, 7683012.475195526145399, 0.0 ], [ 723353.436861405265518, 7683289.131723638623953, 0.0 ], [ 723030.671096987905912, 7683550.418441543355584, 0.0 ], [ 722769.384535028366372, 7683796.33534087613225, 0.0 ], [ 722538.837580542545766, 7684057.622033569961786, 0.0 ], [ 722354.400039453525096, 7684349.648317244835198, 0.0 ], [ 722277.551097790477797, 7684595.565166395157576, 0.0 ], [ 722323.66062436637003, 7685041.289405179210007, 0.0 ], [ 722339.030472152284347, 7685210.357220528647304, 0.0 ], [ 722339.030526569928043, 7685410.164643665775657, 0.0 ], [ 722339.030618659686297, 7685748.300282929092646, 0.0 ], [ 722246.811925306799822, 7686178.654758215881884, 0.0 ], [ 722216.072405455168337, 7686486.050802562385798, 0.0 ], [ 722185.332893944345415, 7686824.186450641602278, 0.0 ], [ 722123.853783029830083, 7687177.691909037530422, 0.0 ], [ 722123.853845751727931, 7687408.238936295732856, 0.0 ], [ 722677.166873402195051, 7688007.661056760698557, 0.0 ], [ 722800.125312917982228, 7688099.879834209568799, 0.0 ], [ 723199.74021002673544, 7688284.317347082309425, 0.0 ], [ 723568.615524750668555, 7688545.603877430781722, 0.0 ], [ 723706.943791519850492, 7688730.041461662389338, 0.0 ], [ 723660.834491340443492, 7689114.286520502530038, 0.0 ], [ 723522.50638018513564, 7689498.531604773364961, 0.0 ], [ 723461.02726121689193, 7689821.297460710629821, 0.0 ], [ 723430.287745869369246, 7690144.063308359123766, 0.0 ], [ 723430.287829970475286, 7690451.459345849230886, 0.0 ], [ 723491.767108835745603, 7690712.745960986241698, 0.0 ], [ 723568.616168552776799, 7690897.183562561869621, 0.0 ], [ 723753.05386653332971, 7691173.839946044608951, 0.0 ], [ 724352.476202167687006, 7691404.386810004711151, 0.0 ], [ 724598.39306571346242, 7691527.345157587900758, 0.0 ], [ 724967.268352705286816, 7691681.043075060471892, 0.0 ], [ 725167.075802356470376, 7691773.261831413023174, 0.0 ], [ 725305.404040347901173, 7691850.110802784562111, 0.0 ], [ 725397.622864274075255, 7691896.220183053985238, 0.0 ], [ 725582.060512157157063, 7691988.438943570479751, 0.0 ], [ 725705.018944103387184, 7692049.918117230758071, 0.0 ], [ 725889.456587806111202, 7692126.767075788229704, 0.0 ], [ 726073.894227290875278, 7692188.246232399716973, 0.0 ], [ 726273.701660160208121, 7692218.985780891962349, 0.0 ], [ 726412.029877025983296, 7692218.985742557793856, 0.0 ], [ 727026.821926356642507, 7692126.766760434955359, 0.0 ], [ 727426.436749361106195, 7692034.547837800346315, 0.0 ], [ 727687.723346885759383, 7691911.589349743910134, 0.0 ], [ 727979.749539483804256, 7691757.891249231994152, 0.0 ], [ 728317.885167639120482, 7691711.781749065965414, 0.0 ], [ 728671.390606227680109, 7691696.411848263815045, 0.0 ], [ 728917.307461908785626, 7691788.630590793676674, 0.0 ], [ 729024.896143931662664, 7692034.547391138970852, 0.0 ], [ 728994.156643612426706, 7692403.422645660117269, 0.0 ], [ 728871.198362100985833, 7692879.886539664119482, 0.0 ], [ 728871.19847407459747, 7693279.501389812678099, 0.0 ], [ 728963.417406073887832, 7693709.855818195268512, 0.0 ], [ 729086.37594198808074, 7694140.210238181054592, 0.0 ], [ 729240.074047363246791, 7694447.606234100647271, 0.0 ], [ 729347.66273844987154, 7694724.262639136053622, 0.0 ], [ 729409.142015197547153, 7694970.179453274235129, 0.0 ], [ 729470.621309250709601, 7695277.575475363060832, 0.0 ], [ 729532.100594711489975, 7695554.231893611140549, 0.0 ], [ 729532.100676758098416, 7695846.258131206035614, 0.0 ], [ 729424.512127901660278, 7696076.805191181600094, 0.0 ], [ 729255.44437117734924, 7696307.35226845741272, 0.0 ], [ 729055.637023371527903, 7696584.008760372176766, 0.0 ], [ 728825.090062897303142, 7696829.92565693333745, 0.0 ], [ 728717.501530918176286, 7697121.951925109140575, 0.0 ], [ 728563.803562846616842, 7697306.3895922023803, 0.0 ], [ 728379.366025126888417, 7697613.785584010183811, 0.0 ], [ 728164.188891885103658, 7697951.921288516372442, 0.0 ], [ 728041.230553239583969, 7698228.577759265899658, 0.0 ], [ 727949.01181420404464, 7698489.864419480785728, 0.0 ], [ 727902.902459668926895, 7698674.302056738175452, 0.0 ], [ 727872.16296283272095, 7699058.54711626470089, 0.0 ], [ 727872.163031407049857, 7699304.463948968797922, 0.0 ], [ 727826.053693945868872, 7699550.380794607102871, 0.0 ], [ 727764.574545871000737, 7699765.558040486648679, 0.0 ], [ 727826.053818209678866, 7699996.105054209008813, 0.0 ], [ 727918.272673200233839, 7700149.803049105219543, 0.0 ], [ 728071.970719172852114, 7700242.021818604320288, 0.0 ], [ 728287.147986169788055, 7700380.349977117031813, 0.0 ], [ 728567.646869393764064, 7700545.575320948846638, 0.0 ], [ 728775.139232308720239, 7700672.376079982146621, 0.0 ], [ 728901.940184602979571, 7700799.176961585879326, 0.0 ], [ 728959.576934220502153, 7700949.032465687021613, 0.0 ], [ 729017.213819392491132, 7701225.688886988908052, 0.0 ], [ 729028.741172611713409, 7701410.12650877609849, 0.0 ], [ 728982.631834291154519, 7701652.200954595580697, 0.0 ], [ 728832.77639174356591, 7701928.85743425693363, 0.0 ], [ 728659.86612987332046, 7702147.877112550660968, 0.0 ], [ 728533.065351546159945, 7702286.205366933718324, 0.0 ], [ 728348.627775086322799, 7702459.115742158144712, 0.0 ], [ 728152.662800213554874, 7702643.55342217721045, 0.0 ], [ 727979.752631579060107, 7702839.518397348001599, 0.0 ], [ 727818.369754781248048, 7703000.901364549063146, 0.0 ], [ 727645.459508462343365, 7703277.557850864715874, 0.0 ], [ 727541.713455374934711, 7703496.577610011212528, 0.0 ], [ 727391.857899165945128, 7703727.124683631584048, 0.0 ], [ 727218.947730117361061, 7703923.089658895507455, 0.0 ], [ 727057.5648465474369, 7704061.417922951281071, 0.0 ], [ 726734.799079244374298, 7704338.07445103675127, 0.0 ], [ 726538.834202583995648, 7704879.860081028193235, 0.0 ], [ 726469.670150561723858, 7705087.352429266087711, 0.0 ], [ 726273.705328865442425, 7705467.755036964081228, 0.0 ], [ 726158.431873530615121, 7705686.774799708276987, 0.0 ], [ 726008.576329268747941, 7705963.431280198507011, 0.0 ], [ 725893.302886528661475, 7706228.560349563136697, 0.0 ], [ 725778.029440530575812, 7706482.162117363885045, 0.0 ], [ 725685.810694499523379, 7706724.236477223224938, 0.0 ], [ 725582.064637255156413, 7706931.728835391812027, 0.0 ], [ 725374.572432140703313, 7707381.295656795613468, 0.0 ], [ 725259.299049326917157, 7707865.444457962177694, 0.0 ], [ 725144.025631460244767, 7708222.792341116815805, 0.0 ], [ 724948.060774969984777, 7708845.269384969957173, 0.0 ], [ 724775.150673944619484, 7709294.836197753436863, 0.0 ], [ 724588.792541626375169, 7709638.182898945175111, 0.0 ], [ 724588.792659262078814, 7710066.52296151407063, 0.0 ], [ 724654.721277564531192, 7710462.676801471970975, 0.0 ], [ 724654.72133535251487, 7710673.04623238928616, 0.0 ], [ 724678.095783679164015, 7710836.666950050741434, 0.0 ], [ 724724.844516135053709, 7710930.164450982585549, 0.0 ], [ 724865.090887859114446, 7711117.159440018236637, 0.0 ], [ 725005.337259646039456, 7711304.154429076239467, 0.0 ], [ 725192.332344735623337, 7711514.52390874736011, 0.0 ], [ 725402.701814003055915, 7711654.770071587525308, 0.0 ], [ 725659.820083713624626, 7711771.641918029636145, 0.0 ], [ 725963.687066783430055, 7711911.888154970481992, 0.0 ], [ 726267.554049956612289, 7712052.134391821920872, 0.0 ], [ 726805.165006339550018, 7712332.626784714870155, 0.0 ], [ 726922.036955893971026, 7712449.498669741675258, 0.0 ], [ 727109.032015776727349, 7712566.370535301044583, 0.0 ], [ 727389.524576460360549, 7712636.493667855858803, 0.0 ], [ 727576.519716943847016, 7712683.242322843521833, 0.0 ], [ 727833.637861249735579, 7712706.616654762998223, 0.0 ], [ 727950.509771918877959, 7712683.242218704894185, 0.0 ], [ 728114.130489454022609, 7712659.867769593372941, 0.0 ], [ 728371.248727245256305, 7712659.867697846144438, 0.0 ], [ 728558.243754728231579, 7712659.867645617574453, 0.0 ], [ 728815.361999058630317, 7712683.241977228783071, 0.0 ], [ 729002.357046183897182, 7712753.36513539403677, 0.0 ], [ 729212.726522980257869, 7712916.98570098541677, 0.0 ], [ 729329.598492623190396, 7713103.980696287937462, 0.0 ], [ 729329.598558155121282, 7713337.72453142143786, 0.0 ], [ 729282.849810211104341, 7713548.093976205214858, 0.0 ], [ 729212.726778426324017, 7713828.586638178676367, 0.0 ], [ 729282.849928143434227, 7713968.832939728163183, 0.0 ], [ 729586.716999536729418, 7714062.330368647351861, 0.0 ], [ 729703.588930042693391, 7714109.079042913392186, 0.0 ], [ 730311.322879685088992, 7714319.448403920978308, 0.0 ], [ 730521.692337382817641, 7714412.945858855731785, 0.0 ], [ 730732.061901724664494, 7714529.817717297002673, 0.0 ], [ 730965.805676219635643, 7714670.063872661441565, 0.0 ], [ 731222.923960897605866, 7714833.684524939395487, 0.0 ], [ 731480.042272135266103, 7715090.802691435441375, 0.0 ], [ 731620.2886593490839, 7715324.546487457118928, 0.0 ], [ 731690.411809606594034, 7715464.792689066380262, 0.0 ], [ 731900.78140027273912, 7716025.7778155580163, 0.0 ], [ 731970.904583772644401, 7716282.896035267040133, 0.0 ], [ 732041.027854059124365, 7716493.265447836369276, 0.0 ], [ 732157.899864644277841, 7716820.506765272468328, 0.0 ], [ 732204.648624828085303, 7717007.501880976371467, 0.0 ], [ 732251.397544742561877, 7717404.866329409182072, 0.0 ], [ 732157.900242679170333, 7718152.846572615206242, 0.0 ], [ 731994.279590423218906, 7718409.964859279803932, 0.0 ], [ 731807.284641075180843, 7718690.45755629055202, 0.0 ], [ 731620.289665133226663, 7718877.452638635411859, 0.0 ], [ 731456.668979502748698, 7719017.699007008224726, 0.0 ], [ 731316.422704045195132, 7719181.319672444835305, 0.0 ], [ 731222.925229182466865, 7719321.566020997241139, 0.0 ], [ 731082.678947026026435, 7719461.81238276232034, 0.0 ], [ 731012.555895519792102, 7719672.181835830211639, 0.0 ], [ 731012.555935109965503, 7719812.428158042952418, 0.0 ], [ 731012.555981298326515, 7719976.048783988691866, 0.0 ], [ 731012.556047279736958, 7720209.792621104046702, 0.0 ], [ 731059.304900779039599, 7720373.413333930075169, 0.0 ], [ 731035.930629094829783, 7720840.900915064848959, 0.0 ], [ 731035.930688482359983, 7721051.270448694005609, 0.0 ], [ 731035.930734670953825, 7721214.891074886545539, 0.0 ], [ 731035.930800653179176, 7721448.634912360459566, 0.0 ], [ 731082.679547625710256, 7721588.88122168276459, 0.0 ], [ 731082.679580622818321, 7721705.753140464425087, 0.0 ], [ 731176.177248220192268, 7721892.748144152574241, 0.0 ], [ 731199.551598138757981, 7722056.368863912299275, 0.0 ], [ 731246.300464983680286, 7722266.738284649327397, 0.0 ], [ 731316.423741258797236, 7722851.097859409637749, 0.0 ], [ 731293.04954320914112, 7723225.08792676217854, 0.0 ], [ 731269.675192303257063, 7723412.083063804544508, 0.0 ], [ 731222.926431033760309, 7723575.703703681007028, 0.0 ], [ 731082.680148135521449, 7723715.950066165998578, 0.0 ], [ 730989.182652913033962, 7723786.073204006068408, 0.0 ], [ 730872.310760511551052, 7723879.570752252824605, 0.0 ], [ 730708.690173739101738, 7724019.817121317610145, 0.0 ], [ 730591.818301025312394, 7724183.437881037592888, 0.0 ], [ 730469.35143835877534, 7724386.12104875408113, 0.0 ], [ 730408.832955362508073, 7724481.221781396307051, 0.0 ], [ 730287.795779595850036, 7724636.841041021049023, 0.0 ], [ 730235.922688232501969, 7724697.359665561467409, 0.0 ], [ 730158.113104815129191, 7724801.10580450668931, 0.0 ], [ 730054.366934186778963, 7724965.370660717599094, 0.0 ], [ 730011.139473332790658, 7725129.63539994508028, 0.0 ], [ 730019.785003885626793, 7725233.381514638662338, 0.0 ], [ 730019.785023315926082, 7725302.545626062899828, 0.0 ], [ 730045.721556682372466, 7725406.291835920885205, 0.0 ], [ 730063.012681360123679, 7725484.10144392773509, 0.0 ], [ 730106.240207833121531, 7725553.265543222427368, 0.0 ], [ 730166.7588419894455, 7725639.72064052708447, 0.0 ], [ 730253.213970658602193, 7725691.593724807724357, 0.0 ], [ 730356.960202157730237, 7725743.466804219409823, 0.0 ], [ 730434.769831873942167, 7725803.985392356291413, 0.0 ], [ 730581.74357532185968, 7725873.149462449364364, 0.0 ], [ 730711.426320843398571, 7725959.604540264233947, 0.0 ], [ 731013.898108198307455, 7726448.576936300843954, 0.0 ], [ 730920.050956790451892, 7726675.387500597164035, 0.0 ], [ 730747.140677136834711, 7726848.297778220847249, 0.0 ], [ 730597.285194711992517, 7726998.153445493429899, 0.0 ], [ 730447.429628454148769, 7727205.645822421647608, 0.0 ], [ 730239.93736233166419, 7727447.720221381634474, 0.0 ], [ 729951.753692453727126, 7727724.376748841255903, 0.0 ], [ 729698.152018411550671, 7727966.451260762289166, 0.0 ], [ 729375.386248882859945, 7728266.162501780316234, 0.0 ], [ 729144.839291238342412, 7728554.346315028145909, 0.0 ], [ 728879.710224443231709, 7728831.002836022526026, 0.0 ], [ 728672.217979974579066, 7729153.768748762086034, 0.0 ], [ 728614.581315392628312, 7729315.151692287996411, 0.0 ], [ 728443.85861374984961, 7729770.164917450398207, 0.0 ], [ 728683.339917464181781, 7729997.587889458052814, 0.0 ], [ 728918.678602587548085, 7730160.514551578089595, 0.0 ], [ 729063.502457353053614, 7730269.132429681718349, 0.0 ], [ 729099.708378645125777, 7730323.441328857094049, 0.0 ], [ 729154.017302996246144, 7730377.750222971662879, 0.0 ], [ 729190.223334432113916, 7730468.265028361231089, 0.0 ], [ 729208.326257755281404, 7730540.676935719326138, 0.0 ], [ 729262.635187194100581, 7730613.088832949288189, 0.0 ], [ 729298.841228789882734, 7730739.80964457988739, 0.0 ], [ 729353.150163320475258, 7730830.324444935657084, 0.0 ], [ 729407.459097862709314, 7730920.839345298707485, 0.0 ], [ 729516.076941619161516, 7731011.354130448773503, 0.0 ], [ 729552.282968048704788, 7731083.766032775864005, 0.0 ], [ 729624.694905701093376, 7731174.280928077176213, 0.0 ], [ 729787.621653653797694, 7731246.692694871686399, 0.0 ], [ 729823.827564878505655, 7731264.795687833800912, 0.0 ], [ 729896.239482251810841, 7731282.898670637048781, 0.0 ], [ 729968.651404710253701, 7731319.104556554928422, 0.0 ], [ 730059.166235335753299, 7731373.413440512493253, 0.0 ], [ 730113.475169991259463, 7731463.92834088858217, 0.0 ], [ 730167.784199572983198, 7731536.340238142758608, 0.0 ], [ 730276.402053673635237, 7731663.061029528267682, 0.0 ], [ 730330.710983283701353, 7731735.472826790064573, 0.0 ], [ 730421.225819069892168, 7731807.884713869541883, 0.0 ], [ 730493.637746693450026, 7731862.193602902814746, 0.0 ], [ 730674.667503047152422, 7731952.708467630669475, 0.0 ], [ 730728.976422512321733, 7731988.914358614012599, 0.0 ], [ 730819.49133795616217, 7731988.914333112537861, 0.0 ], [ 730891.903260518331081, 7732025.120318982750177, 0.0 ], [ 731018.624102572561242, 7732097.532095815986395, 0.0 ], [ 731091.0359302603174, 7732151.841084819287062, 0.0 ], [ 731181.550866161938757, 7732224.252871854230762, 0.0 ], [ 731235.859800997655839, 7732314.767772251740098, 0.0 ], [ 731308.271733832661994, 7732387.179664401337504, 0.0 ], [ 731380.683656452223659, 7732423.385550247505307, 0.0 ], [ 731471.19848217710387, 7732459.591430973261595, 0.0 ], [ 731597.919329466996714, 7732550.106310913339257, 0.0 ], [ 731652.228249011561275, 7732586.312201859429479, 0.0 ], [ 731706.537173681659624, 7732640.62109596002847, 0.0 ], [ 731778.949106586049311, 7732713.032988095656037, 0.0 ], [ 731815.155033291084692, 7732785.444890478625894, 0.0 ], [ 731887.566966216778383, 7732857.856782618910074, 0.0 ], [ 731941.87589604803361, 7732930.268679881468415, 0.0 ], [ 731978.081922774435952, 7733002.680582275614142, 0.0 ], [ 732050.493850607657805, 7733056.989471257664263, 0.0 ], [ 732122.905673318658955, 7733093.195357067510486, 0.0 ], [ 732249.626510513247922, 7733147.504230646416545, 0.0 ], [ 732303.935419859713875, 7733147.504215246066451, 0.0 ], [ 732340.141426088404842, 7733147.504204979166389, 0.0 ], [ 732412.553338547819294, 7733147.504184438847005, 0.0 ], [ 732521.171152099268511, 7733129.401150447316468, 0.0 ], [ 732702.200867818202823, 7733075.092189547605813, 0.0 ], [ 732756.509772015269846, 7733056.989270953461528, 0.0 ], [ 732828.92167932074517, 7733038.886247210204601, 0.0 ], [ 732919.436500033247285, 7733056.989224642515182, 0.0 ], [ 733028.054334161803126, 7733111.298103243112564, 0.0 ], [ 733082.363358958042227, 7733165.606997292488813, 0.0 ], [ 733136.672278611222282, 7733201.812888171523809, 0.0 ], [ 733281.496029318775982, 7733292.327762784436345, 0.0 ], [ 733353.907952108071186, 7733328.533648500218987, 0.0 ], [ 733426.319869742146693, 7733346.636631039902568, 0.0 ], [ 733480.628789421869442, 7733382.842521905899048, 0.0 ], [ 733589.246608145302162, 7733382.842490940354764, 0.0 ], [ 733752.173336229054257, 7733382.842444464564323, 0.0 ], [ 733915.100164314266294, 7733382.842397958040237, 0.0 ], [ 734005.61497991788201, 7733382.842372105456889, 0.0 ], [ 734078.02689239999745, 7733382.842351418919861, 0.0 ], [ 734168.541808002744801, 7733382.842325549572706, 0.0 ], [ 734313.365532968775369, 7733382.842284135520458, 0.0 ], [ 734403.880453751771711, 7733400.945261414162815, 0.0 ], [ 734530.601285966229625, 7733437.151131489314139, 0.0 ], [ 734621.116111946175806, 7733473.357111918739974, 0.0 ], [ 734711.631037933635525, 7733509.562992338091135, 0.0 ], [ 734784.042865994037129, 7733563.871881114318967, 0.0 ], [ 734838.351896128733642, 7733636.283778252080083, 0.0 ], [ 734910.763729400699958, 7733708.695670204237103, 0.0 ], [ 734983.175652296631597, 7733744.901555795222521, 0.0 ], [ 735055.587580396793783, 7733799.210444564931095, 0.0 ], [ 735109.896505373180844, 7733853.519438525661826, 0.0 ], [ 735146.102522030007094, 7733889.72533450089395, 0.0 ], [ 735456.446205517393537, 7733993.371463594958186, 0.0 ], [ 735490.203628614079207, 7734053.38466445542872, 0.0 ], [ 735610.230163428233936, 7734102.145338529720902, 0.0 ], [ 735673.994183109840378, 7734132.151925476267934, 0.0 ], [ 735764.014111666707322, 7734177.161807503551245, 0.0 ], [ 735887.791350407293066, 7734237.175082450732589, 0.0 ], [ 736037.824487236677669, 7734274.683245850726962, 0.0 ], [ 736161.601827095379122, 7734338.447321425192058, 0.0 ], [ 736292.880769355921075, 7734405.96219548676163, 0.0 ], [ 736424.159711639978923, 7734473.4769695289433, 0.0 ], [ 736652.960181731381454, 7734578.500122023746371, 0.0 ], [ 736829.249138408806175, 7734668.519886994734406, 0.0 ], [ 736990.534689258085564, 7734747.287254287861288, 0.0 ], [ 737170.574443404329941, 7734826.05451613292098, 0.0 ], [ 737534.404661155887879, 7735013.595843950286508, 0.0 ], [ 737729.447723475052044, 7735111.117204670794308, 0.0 ], [ 737823.218464884674177, 7735197.386292768642306, 0.0 ], [ 738063.271438418189064, 7735306.160142367705703, 0.0 ], [ 738254.563598033506423, 7735396.180002759210765, 0.0 ], [ 738269.566922474885359, 7735471.196511732414365, 0.0 ], [ 738348.334359174361452, 7735549.963802836835384, 0.0 ], [ 738408.34759696922265, 7735643.734502067789435, 0.0 ], [ 738476.084429110633209, 7735713.389494760893285, 0.0 ], [ 738516.912159342784435, 7735792.642997002229095, 0.0 ], [ 738526.711972765042447, 7735832.843201317824423, 0.0 ], [ 738547.128370904014446, 7736157.597753345966339, 0.0 ], [ 738532.12510757765267, 7736292.627581858076155, 0.0 ], [ 738532.125153442379087, 7736450.162310050800443, 0.0 ], [ 738580.885955962818116, 7736772.733453681692481, 0.0 ], [ 738603.390998168033548, 7736904.012370700016618, 0.0 ], [ 738622.145117868669331, 7736960.274775348603725, 0.0 ], [ 738626.912548536085524, 7737062.681692368350923, 0.0 ], [ 738637.14846749487333, 7737121.560299977660179, 0.0 ], [ 738790.932470140862279, 7737380.367401774972677, 0.0 ], [ 738998.572910273331217, 7737734.55600515101105, 0.0 ], [ 739537.676566556561738, 7738283.420747086405754, 0.0 ], [ 739608.83078600524459, 7738306.510930471122265, 0.0 ], [ 739676.612813144573011, 7738357.943419979885221, 0.0 ], [ 739924.770811313064769, 7738541.900880761444569, 0.0 ], [ 739986.913234353181906, 7738582.643069966696203, 0.0 ], [ 740072.302068604156375, 7738647.436156732961535, 0.0 ], [ 740101.612982786260545, 7738677.943353693932295, 0.0 ], [ 740116.913289831136353, 7738692.643051883205771, 0.0 ], [ 741412.761205311864614, 7739315.793384747579694, 0.0 ], [ 741547.791089279460721, 7739518.338081983849406, 0.0 ], [ 741656.565045357099734, 7739642.115272564813495, 0.0 ], [ 741851.608113698661327, 7739754.640035638585687, 0.0 ], [ 742110.415193596854806, 7739867.164779847487807, 0.0 ], [ 742320.46155478223227, 7739945.932132215239108, 0.0 ], [ 742583.019501066533849, 7739942.181153853423893, 0.0 ], [ 742718.049257656210102, 7740050.955133836716413, 0.0 ], [ 742898.089047987945378, 7740245.998116329312325, 0.0 ], [ 743081.879641308798455, 7740448.542699098587036, 0.0 ], [ 743123.138786613359116, 7740576.070810346864164, 0.0 ], [ 743194.404539601644501, 7740711.100614095106721, 0.0 ], [ 743282.16825874755159, 7740721.945690046995878, 0.0 ], [ 743357.159958252683282, 7740674.450959025882185, 0.0 ], [ 743504.643776837736368, 7740646.953910154290497, 0.0 ], [ 743659.626698260311969, 7740624.456359945237637, 0.0 ], [ 743854.605128413182683, 7740606.958198733627796, 0.0 ], [ 744062.082386137451977, 7740674.450749417766929, 0.0 ], [ 744144.573302592383698, 7740679.450125770643353, 0.0 ], [ 744184.568821764318272, 7740719.445721233263612, 0.0 ], [ 744232.063662416534498, 7740826.93382691219449, 0.0 ], [ 744239.562906240927987, 7740969.418150989338756, 0.0 ], [ 744259.560750850243494, 7741106.902970440685749, 0.0 ], [ 744277.058777130790986, 7741184.394479559734464, 0.0 ], [ 744294.556895961752161, 7741236.888684058561921, 0.0 ], [ 744289.557510698679835, 7741289.382895264774561, 0.0 ], [ 744279.558637933223508, 7741386.872116300277412, 0.0 ], [ 744284.558061941992491, 7741464.36362917162478, 0.0 ], [ 744307.055583182373084, 7741521.857333124615252, 0.0 ], [ 744307.055601066560484, 7741581.850644249469042, 0.0 ], [ 744327.053419620497152, 7741631.845147564075887, 0.0 ], [ 744384.547142788185738, 7741674.34043831191957, 0.0 ], [ 744459.538865431444719, 7741704.337121519260108, 0.0 ], [ 744595.634996221633628, 7741724.195984603837132, 0.0 ], [ 744676.749025441706181, 7741772.434769354760647, 0.0 ], [ 744770.668643180397339, 7741774.351541669107974, 0.0 ], [ 744924.371067005908117, 7741760.073193103075027, 0.0 ], [ 745020.242690398357809, 7741779.70946809835732, 0.0 ], [ 745196.91511465376243, 7741752.842310276813805, 0.0 ], [ 745340.751711753662676, 7741655.342249134555459, 0.0 ], [ 745396.714915179414675, 7741632.642028166912496, 0.0 ], [ 745606.91515062795952, 7741622.842163389548659, 0.0 ], [ 745730.182958146207966, 7741572.842117168940604, 0.0 ], [ 746476.915297406492755, 7741582.641694779507816, 0.0 ], [ 746566.715125894756056, 7741622.841875230893493, 0.0 ], [ 746748.114880695356987, 7741694.835434006527066, 0.0 ], [ 747046.715294934576377, 7741892.841780859045684, 0.0 ], [ 747129.925115909660235, 7741911.914959320798516, 0.0 ], [ 747171.087043451494537, 7741978.273259254172444, 0.0 ], [ 747237.987485138233751, 7742075.871557241305709, 0.0 ], [ 747288.292419649544172, 7742159.713057680055499, 0.0 ], [ 747417.669010971323587, 7742383.69356039352715, 0.0 ], [ 747499.125544878654182, 7742446.471247516572475, 0.0 ], [ 747574.578484642319381, 7742532.242740742862225, 0.0 ], [ 747701.93451842921786, 7742897.522270563989878, 0.0 ], [ 747833.32258397678379, 7743034.273356463760138, 0.0 ], [ 747860.887293352745473, 7743048.473450787365437, 0.0 ], [ 747928.137009725091048, 7743061.601532911881804, 0.0 ], [ 747980.027927377261221, 7743088.333422226831317, 0.0 ], [ 748101.287755716242827, 7743108.073389235883951, 0.0 ], [ 748297.165507053141482, 7743158.273139340803027, 0.0 ], [ 748402.773422295809723, 7743144.272604720667005, 0.0 ], [ 748487.698932690895163, 7743126.878175720572472, 0.0 ], [ 748573.684190427535214, 7743264.962075551971793, 0.0 ], [ 748639.097031685058028, 7743361.157373773865402, 0.0 ], [ 748681.423067522235215, 7743453.504878280684352, 0.0 ], [ 748846.879040163243189, 7743592.026154112070799, 0.0 ], [ 748971.087898456025869, 7743708.273238269612193, 0.0 ], [ 749040.887723596184514, 7743748.473124635405838, 0.0 ], [ 749301.08801735425368, 7743898.273173766210675, 0.0 ], [ 749370.887842527357861, 7743938.473060113377869, 0.0 ], [ 749631.088136408478022, 7744088.273109176196158, 0.0 ], [ 749700.887961611500941, 7744128.4729955047369, 0.0 ], [ 750841.319864175166003, 7744098.257141651585698, 0.0 ], [ 751666.588817498413846, 7744098.479888765141368, 0.0 ], [ 751963.29356100584846, 7744060.755490507930517, 0.0 ], [ 752036.293670145445503, 7744046.399065358564258, 0.0 ], [ 752356.618106916663237, 7743972.671652906574309, 0.0 ], [ 752582.650517283007503, 7743870.187163971364498, 0.0 ], [ 752699.870609298232011, 7743773.766109678894281, 0.0 ], [ 752939.080991188297048, 7743571.409197812899947, 0.0 ], [ 753153.301677156588994, 7743397.592699002474546, 0.0 ], [ 753196.632373521104455, 7743359.891378536820412, 0.0 ], [ 753238.349775089882314, 7743340.002961911261082, 0.0 ], [ 753292.790680339327082, 7743324.437142168171704, 0.0 ], [ 753358.768476221943274, 7743271.670111872255802, 0.0 ], [ 753398.902680199709721, 7743260.555897378362715, 0.0 ], [ 753643.902644999325275, 7743000.555772829800844, 0.0 ], [ 753678.802634612540714, 7742946.198451843112707, 0.0 ], [ 753663.902583698509261, 7742790.555727303028107, 0.0 ], [ 753647.537788618006743, 7742493.046476731076837, 0.0 ], [ 753598.839057440403849, 7742421.203578377142549, 0.0 ], [ 753585.32089085993357, 7742214.034643901512027, 0.0 ], [ 753566.539862875360996, 7742134.713634921237826, 0.0 ], [ 753527.097135238116607, 7742068.744034830480814, 0.0 ], [ 753502.353517067851499, 7742024.653134268708527, 0.0 ], [ 753497.779246916994452, 7741800.55559397675097, 0.0 ], [ 753501.045798026723787, 7741640.555563227273524, 0.0 ], [ 753497.854849081486464, 7741484.19383518025279, 0.0 ], [ 753508.802140643703751, 7741450.455425534397364, 0.0 ], [ 753540.662431919598021, 7741403.455606961622834, 0.0 ], [ 753569.0022114708554, 7741320.655582840554416, 0.0 ], [ 753579.312297012656927, 7741267.847669863142073, 0.0 ], [ 753681.602271934156306, 7741126.588712043128908, 0.0 ], [ 753775.103261145064607, 7741036.755266471765935, 0.0 ], [ 753838.802052202983759, 7740970.455234479159117, 0.0 ], [ 753914.138943483238108, 7740898.072697760537267, 0.0 ], [ 753938.802036312874407, 7740860.455183165147901, 0.0 ], [ 754123.975309116067365, 7740664.18678951729089, 0.0 ], [ 754166.511881334125064, 7740549.705555204302073, 0.0 ], [ 754198.801971913548186, 7740500.455036106519401, 0.0 ], [ 754233.872763936407864, 7740454.235516707412899, 0.0 ], [ 754291.35194760072045, 7740368.00498298369348, 0.0 ], [ 754301.092237558215857, 7740329.949672951363027, 0.0 ], [ 754301.122837569215335, 7740329.975172948092222, 0.0 ], [ 754357.824519959045574, 7740240.137838810682297, 0.0 ], [ 754380.292695416486822, 7740147.969214875251055, 0.0 ], [ 754446.716058215592057, 7739989.451765110716224, 0.0 ], [ 754436.91623259393964, 7739912.638954041525722, 0.0 ], [ 754420.856615128112026, 7739865.720050409436226, 0.0 ], [ 754413.571302985888906, 7739508.743587203323841, 0.0 ], [ 754436.776893180096522, 7739463.699071746319532, 0.0 ], [ 754448.900872236816213, 7739389.222754350863397, 0.0 ], [ 754509.059535693842918, 7739236.694007765501738, 0.0 ], [ 754572.624012293294072, 7739124.579667529091239, 0.0 ], [ 754650.023916443344206, 7739093.184437746182084, 0.0 ], [ 754778.097636205377057, 7739082.742496034130454, 0.0 ], [ 754935.517037904937752, 7738997.318831477314234, 0.0 ], [ 754946.916026112972759, 7738952.83881981484592, 0.0 ], [ 754956.715815366478637, 7738912.638609427958727, 0.0 ], [ 755156.915985957952216, 7738702.838708864524961, 0.0 ], [ 755171.124879381852224, 7738673.54849910363555, 0.0 ], [ 755236.91598783119116, 7738662.838676664046943, 0.0 ], [ 755293.156186281121336, 7738625.527352348901331, 0.0 ], [ 755310.909286580979824, 7738616.291545136831701, 0.0 ], [ 755356.915990628069267, 7738602.838628351688385, 0.0 ], [ 755547.52626939478796, 7738425.317136626690626, 0.0 ], [ 755636.915981488535181, 7738412.838506476953626, 0.0 ], [ 755815.03356129466556, 7738246.13432059250772, 0.0 ], [ 755944.955474101938307, 7738212.83837397582829, 0.0 ], [ 756288.424739048699848, 7738224.36716871894896, 0.0 ], [ 756398.874064670875669, 7738243.206237589940429, 0.0 ], [ 756431.81597034400329, 7738242.534227159805596, 0.0 ], [ 756466.212876707897522, 7738243.236216522753239, 0.0 ], [ 756541.996561981271952, 7738152.962076406925917, 0.0 ], [ 756596.916034167981707, 7738032.838137410581112, 0.0 ], [ 756612.059906100970693, 7737615.295957027003169, 0.0 ], [ 756671.615578237222508, 7737492.5377161744982, 0.0 ], [ 756686.915871653705835, 7737462.838006015866995, 0.0 ], [ 756700.714656368363649, 7737406.229691463522613, 0.0 ], [ 756726.715644193347543, 7737352.637773636728525, 0.0 ], [ 756745.961235905298963, 7737315.280560862272978, 0.0 ], [ 756757.862950401729904, 7737035.698606707155704, 0.0 ], [ 756794.349739993456751, 7736981.871085575781763, 0.0 ], [ 756813.597819861955941, 7736906.766066018491983, 0.0 ], [ 756832.689562044804916, 7736711.546324912458658, 0.0 ], [ 756856.515250860946253, 7736662.437408613041043, 0.0 ], [ 756885.038138539181091, 7736607.071189720183611, 0.0 ], [ 756916.915617755264975, 7736522.837764599360526, 0.0 ], [ 756933.514694018871523, 7736437.804744126275182, 0.0 ], [ 756956.715368265169673, 7736342.637519778683782, 0.0 ], [ 757143.853944826056249, 7736162.837628842331469, 0.0 ], [ 757146.814196650288068, 7736007.691400134935975, 0.0 ], [ 757174.017473185318522, 7735917.699375499039888, 0.0 ], [ 757216.8907515918836, 7735824.917645454406738, 0.0 ], [ 757249.096835461677983, 7735755.527722945436835, 0.0 ], [ 757296.611724219634198, 7735693.164396887645125, 0.0 ], [ 757345.198512714938261, 7735629.394270243123174, 0.0 ], [ 757371.031909960089251, 7735606.202057988382876, 0.0 ], [ 757476.064700590097345, 7735517.760209207423031, 0.0 ], [ 757555.420892949099652, 7735449.203472040593624, 0.0 ], [ 757592.969291846035048, 7735424.768855882808566, 0.0 ], [ 757660.532089643413201, 7735380.130426680669188, 0.0 ], [ 757660.53206697339192, 7735308.054113841615617, 0.0 ], [ 757654.359157157945447, 7735280.281210837885737, 0.0 ], [ 757664.680654992349446, 7735267.65620534401387, 0.0 ], [ 757681.937251373659819, 7735246.54829615727067, 0.0 ], [ 757774.974447809741832, 7735183.481855664402246, 0.0 ], [ 757813.743948671733961, 7735164.671940120868385, 0.0 ], [ 757827.022682680748403, 7734947.623597353696823, 0.0 ], [ 757971.485560557921417, 7734797.263425178825855, 0.0 ], [ 758096.500147520331666, 7734686.663966184481978, 0.0 ], [ 758113.863400188158266, 7734526.84463238529861, 0.0 ], [ 758136.915193485794589, 7734492.837019099853933, 0.0 ], [ 758146.714988825726323, 7734472.636812434531748, 0.0 ], [ 758167.115379895432852, 7734433.037198995240033, 0.0 ], [ 758205.726161527796648, 7734353.448572741821408, 0.0 ], [ 758226.714961768477224, 7734342.63676421251148, 0.0 ], [ 758246.915162191609852, 7734332.836956111714244, 0.0 ], [ 758422.193441171897575, 7734169.59347197599709, 0.0 ], [ 758478.255438916501589, 7734131.591747575439513, 0.0 ], [ 758527.015239917556755, 7734107.936928009614348, 0.0 ], [ 758576.514740460203029, 7734082.436407882720232, 0.0 ], [ 758616.915141286328435, 7734062.836791668087244, 0.0 ], [ 758636.714941500686109, 7734052.636583613231778, 0.0 ], [ 758710.220745102269575, 7734023.64365528523922, 0.0 ], [ 758696.915129841072485, 7733982.636552249081433, 0.0 ], [ 758680.042516572983004, 7733949.886351799592376, 0.0 ], [ 758666.792992840986699, 7733882.012744011357427, 0.0 ], [ 758606.714857429964468, 7733802.836749019101262, 0.0 ], [ 758594.576108320034109, 7733653.937826620414853, 0.0 ], [ 758551.653680905816145, 7733590.618729021400213, 0.0 ], [ 758558.843570925295353, 7733238.274964816868305, 0.0 ], [ 758529.229238507454284, 7733151.75145897641778, 0.0 ], [ 758506.914809688110836, 7733072.636452141217887, 0.0 ], [ 758486.714596804464236, 7733042.836653292179108, 0.0 ], [ 758476.914788739639334, 7733022.636452839709818, 0.0 ], [ 758447.622770058107562, 7732979.423554512672126, 0.0 ], [ 758466.914701877860352, 7732752.836608747020364, 0.0 ], [ 758476.714465631172061, 7732632.636384630575776, 0.0 ], [ 758496.914659695001319, 7732602.836573047563434, 0.0 ], [ 758507.229551433352754, 7732571.047064237296581, 0.0 ], [ 758542.419935912825167, 7732502.736441197805107, 0.0 ], [ 758496.914600225398317, 7732414.401540135964751, 0.0 ], [ 758517.932593185920268, 7732380.680827619507909, 0.0 ], [ 758564.893086994881742, 7732335.562404921278358, 0.0 ], [ 758610.159175476059318, 7732274.497879981063306, 0.0 ], [ 758621.80123461317271, 7732138.776152648963034, 0.0 ], [ 758633.798100329237059, 7732023.706228819675744, 0.0 ], [ 758643.38808209891431, 7731960.783114843070507, 0.0 ], [ 758663.709752446971834, 7731855.892990182153881, 0.0 ], [ 758674.186932727112435, 7731787.791475035250187, 0.0 ], [ 758705.618306655320339, 7731688.258447815664113, 0.0 ], [ 758726.572583752451465, 7731604.441226645372808, 0.0 ], [ 758758.004065940272994, 7731531.101103991270065, 0.0 ], [ 758794.674050671979785, 7731462.999680595472455, 0.0 ], [ 758815.628327754791826, 7731379.182359443977475, 0.0 ], [ 758852.298317440901883, 7731326.796638779342175, 0.0 ], [ 758883.72980126272887, 7731258.695117050781846, 0.0 ], [ 758925.638391831889749, 7731206.309294735081494, 0.0 ], [ 758957.069877299945801, 7731143.446373920887709, 0.0 ], [ 758998.978462885948829, 7731075.344848887994885, 0.0 ], [ 759056.602749479236081, 7731002.004817984998226, 0.0 ], [ 759116.486434029066004, 7730921.033885051496327, 0.0 ], [ 759218.816327104577795, 7730844.286439419724047, 0.0 ], [ 759385.102335055358708, 7730780.33017573133111, 0.0 ], [ 759628.135735713178292, 7730652.417776660062373, 0.0 ], [ 759858.377913834061474, 7730460.549170582555234, 0.0 ], [ 760280.488563278922811, 7730076.811970554292202, 0.0 ], [ 760303.7187290196307, 7729327.54553485289216, 0.0 ], [ 760465.146269428892992, 7729055.051537028513849, 0.0 ], [ 760569.363829091424122, 7728873.448772935196757, 0.0 ], [ 760639.657931935274974, 7728845.448445796966553, 0.0 ], [ 760732.664736164151691, 7728809.887010139413178, 0.0 ], [ 761090.631767840939574, 7728721.551781054586172, 0.0 ], [ 761459.506992659182288, 7728606.278143763542175, 0.0 ], [ 761713.108676042873412, 7728421.840431427583098, 0.0 ], [ 761782.272721234476194, 7728214.34807413071394, 0.0 ], [ 761886.018713142955676, 7727822.418074632063508, 0.0 ], [ 761909.073302657576278, 7727465.070206951349974, 0.0 ], [ 761909.073195716366172, 7727130.776950675062835, 0.0 ], [ 761978.237159591633826, 7726669.68285115249455, 0.0 ], [ 762035.873825181392021, 7726220.116157500073314, 0.0 ], [ 762070.455646343296394, 7725643.748550372198224, 0.0 ], [ 762139.61952877510339, 7724929.052709680981934, 0.0 ], [ 762231.838207121239975, 7724502.540609702467918, 0.0 ], [ 762393.220952189527452, 7723937.700365036725998, 0.0 ], [ 762831.260270999744534, 7723776.317298023030162, 0.0 ], [ 763165.553502600523643, 7723707.153079273179173, 0.0 ], [ 763603.592884251382202, 7723741.734944006428123, 0.0 ], [ 764133.851058475440368, 7723707.152767403051257, 0.0 ], [ 764698.691223316593096, 7723626.461071722209454, 0.0 ], [ 765067.56641920376569, 7723430.496020261198282, 0.0 ], [ 765586.297197814099491, 7723107.729999359697104, 0.0 ], [ 766358.629552787402645, 7722588.998963864520192, 0.0 ], [ 767211.653404564131051, 7722024.158394142054021, 0.0 ], [ 767649.692638484761119, 7721609.173583899624646, 0.0 ], [ 767868.712122267927043, 7721148.079437920823693, 0.0 ], [ 767857.184654430719092, 7720640.87596023734659, 0.0 ], [ 767857.184454445610754, 7720029.926362536847591, 0.0 ], [ 767891.766237198724411, 7719349.812542997300625, 0.0 ], [ 767857.183869537897408, 7718243.186779448762536, 0.0 ], [ 767868.71047307155095, 7716110.62674294039607, 0.0 ], [ 767822.600816988153383, 7715349.821540683507919, 0.0 ], [ 767822.600371617241763, 7713989.59403265081346, 0.0 ], [ 767753.435800907667726, 7712583.25714260712266, 0.0 ], [ 767857.181827429682016, 7712006.889522172510624, 0.0 ], [ 768041.61929958849214, 7711534.268091146834195, 0.0 ], [ 768283.693495045648888, 7711107.755948299542069, 0.0 ], [ 768352.857487851986662, 7710750.408072596415877, 0.0 ], [ 768341.330099176848307, 7710485.278937150724232, 0.0 ], [ 767857.181068486534059, 7709689.891878709197044, 0.0 ], [ 767649.688666938105598, 7709470.872214524075389, 0.0 ], [ 767430.668997778673656, 7709355.59876929782331, 0.0 ], [ 767200.12195339857135, 7709321.016839602962136, 0.0 ], [ 766715.973202755791135, 7709378.653706097975373, 0.0 ], [ 766508.480872980318964, 7709378.653773747384548, 0.0 ], [ 766185.715026665944606, 7709378.653878876008093, 0.0 ], [ 765897.53115157969296, 7709274.907857455313206, 0.0 ], [ 765839.894398343167268, 7709136.579655975103378, 0.0 ], [ 765839.894289653981104, 7708802.286407210864127, 0.0 ], [ 765828.366771824890748, 7708444.938558983616531, 0.0 ], [ 765828.366636901046149, 7708029.953898821957409, 0.0 ], [ 765770.729748857556842, 7707476.641037674620748, 0.0 ], [ 765713.092877031536773, 7707280.67602820508182, 0.0 ], [ 765332.69011765695177, 7706646.67186083085835, 0.0 ], [ 765205.889117618557066, 7706393.070165747776628, 0.0 ], [ 765009.924093058682047, 7706093.359086586162448, 0.0 ], [ 764871.595814008498564, 7705908.921505186706781, 0.0 ], [ 764767.849554761778563, 7705770.593319149687886, 0.0 ], [ 764652.575956626795232, 7705516.99162052758038, 0.0 ], [ 764664.103272385778837, 7705251.862479298375547, 0.0 ], [ 764848.540845625335351, 7705090.47959678247571, 0.0 ], [ 765182.833917040494271, 7704859.932455915957689, 0.0 ], [ 765551.709100514650345, 7704652.440006981603801, 0.0 ], [ 765839.892898959224112, 7704525.638995501212776, 0.0 ], [ 766012.803055214462802, 7704318.146610143594444, 0.0 ], [ 766174.185913554392755, 7704122.181630168110132, 0.0 ], [ 766312.51403861597646, 7703833.997744840569794, 0.0 ], [ 766324.041342532145791, 7703534.286599311977625, 0.0 ], [ 766393.205320460838266, 7703130.829320716671646, 0.0 ], [ 766520.006017395528033, 7702761.95402830094099, 0.0 ], [ 766715.970927306450903, 7702404.606015054509044, 0.0 ], [ 766854.299063168931752, 7702151.004234991967678, 0.0 ], [ 767027.209211121313274, 7701920.457146847620606, 0.0 ], [ 767292.338282654993236, 7701724.492133313789964, 0.0 ], [ 767396.084339992841706, 7701551.581775708124042, 0.0 ], [ 767407.6116585516138, 7701297.9800372896716, 0.0 ], [ 767246.228669131873176, 7701090.487761792726815, 0.0 ], [ 767154.009796536760405, 7700906.050166842527688, 0.0 ], [ 767061.790908913128078, 7700675.503165669739246, 0.0 ], [ 766992.626743228407577, 7700502.592964824289083, 0.0 ], [ 766808.189047253574245, 7700283.57329542376101, 0.0 ], [ 766750.552153072552755, 7700018.444278439506888, 0.0 ], [ 766808.188866583397612, 7699730.260420803911984, 0.0 ], [ 767038.735847968608141, 7699580.404825353063643, 0.0 ], [ 767419.138318767771125, 7699338.33026846498251, 0.0 ], [ 768064.669905146816745, 7699038.61891682818532, 0.0 ], [ 768641.037378238514066, 7698727.380285985767841, 0.0 ], [ 769171.295505660120398, 7698600.57919458206743, 0.0 ], [ 769563.225468155695125, 7698635.161169984377921, 0.0 ], [ 769932.100750529672951, 7698738.907162038609385, 0.0 ], [ 770277.921349053969607, 7698900.289969261735678, 0.0 ], [ 770577.63252640911378, 7699015.563385475426912, 0.0 ], [ 771004.144486053381115, 7699027.090645672753453, 0.0 ], [ 771211.636774947866797, 7698911.817061421461403, 0.0 ], [ 771407.601701012812555, 7698612.105856362730265, 0.0 ], [ 771557.457113271579146, 7698289.339963627979159, 0.0 ], [ 771626.621134117012843, 7698024.210805457085371, 0.0 ], [ 771592.038999340031296, 7697632.280865106731653, 0.0 ], [ 771499.820126134087332, 7697447.843271423131227, 0.0 ], [ 771153.999558580457233, 7697378.679277155548334, 0.0 ], [ 770911.92509680124931, 7697286.460545318201184, 0.0 ], [ 770785.124127639573999, 7696825.366526803001761, 0.0 ], [ 770727.487240025773644, 7696583.292214223183692, 0.0 ], [ 770704.432453039335087, 7696329.690488750115037, 0.0 ], [ 770796.65116545278579, 7696029.979319154284894, 0.0 ], [ 770865.815213095396757, 7695845.541672258637846, 0.0 ], [ 770981.088666548836045, 7695661.104010106064379, 0.0 ], [ 771130.944243457401171, 7695534.30314396135509, 0.0 ], [ 771373.018547301180661, 7695453.611553139984608, 0.0 ], [ 772007.022889132145792, 7695338.337827377021313, 0.0 ], [ 772479.644237334257923, 7695303.755665400996804, 0.0 ], [ 773286.558789159636945, 7695153.89977650064975, 0.0 ], [ 773609.32461058232002, 7695096.262961022555828, 0.0 ], [ 773736.125491805258207, 7694992.516705168411136, 0.0 ], [ 773851.398952222429216, 7694831.133745755068958, 0.0 ], [ 773816.816766721312888, 7694589.059426242485642, 0.0 ], [ 773816.816650789463893, 7694243.238881931640208, 0.0 ], [ 773851.398565727984533, 7693678.398598281666636, 0.0 ], [ 773839.870978771476075, 7693125.085731938481331, 0.0 ], [ 773862.925530868349597, 7692675.519067444838583, 0.0 ], [ 773874.452839510748163, 7692398.862628770060837, 0.0 ], [ 773897.507422491442412, 7692041.514676220715046, 0.0 ], [ 773816.815796660957858, 7691695.694160052575171, 0.0 ], [ 773643.905513771926053, 7691511.256595013663173, 0.0 ], [ 773332.666891000932083, 7691257.65496769733727, 0.0 ], [ 773009.900955465855077, 7690969.471339914947748, 0.0 ], [ 772652.553042926592752, 7690761.979133628308773, 0.0 ], [ 772260.623018716229126, 7690531.432235930114985, 0.0 ], [ 772076.185308150015771, 7690266.303164754062891, 0.0 ], [ 772076.185173712321557, 7689862.845915239304304, 0.0 ], [ 772087.712283025728539, 7689286.478341011330485, 0.0 ], [ 772099.239507681806572, 7688756.220172774046659, 0.0 ], [ 772249.094925473909825, 7688456.50898657925427, 0.0 ], [ 772514.223941319156438, 7688110.688356447033584, 0.0 ], [ 772906.153717839159071, 7687603.484764665365219, 0.0 ], [ 773182.810049897059798, 7687303.773536317050457, 0.0 ], [ 773413.356968668405898, 7686981.007620682008564, 0.0 ], [ 773747.650080448016524, 7686900.316099065355957, 0.0 ], [ 774139.580014330102131, 7686865.73386344499886, 0.0 ], [ 774485.400554460822605, 7686865.733747247606516, 0.0 ], [ 774854.275797268026508, 7686865.733623144216835, 0.0 ], [ 775096.35019816912245, 7686785.042132023721933, 0.0 ], [ 775303.842456141952425, 7686589.077038830146194, 0.0 ], [ 775511.334682889981195, 7686300.893234727904201, 0.0 ], [ 775741.881573201157153, 7685897.435809312388301, 0.0 ], [ 776041.592532210983336, 7685378.704947145655751, 0.0 ], [ 776133.811272552586161, 7685171.212591697461903, 0.0 ], [ 776387.412807782879099, 7684894.556073603220284, 0.0 ], [ 776848.506793724605814, 7684698.590894552879035, 0.0 ], [ 777332.655505557311699, 7684571.789915477856994, 0.0 ], [ 777759.167538184206933, 7684525.680365104228258, 0.0 ], [ 778151.097415781463496, 7684329.715208929032087, 0.0 ], [ 778231.788710938533768, 7683995.422042783349752, 0.0 ], [ 778220.261299612233415, 7683672.65620953310281, 0.0 ], [ 778277.897907817270607, 7683384.472356798127294, 0.0 ], [ 778450.808120965957642, 7683073.233862207271159, 0.0 ], [ 778658.300400797394104, 7682946.432876912876964, 0.0 ], [ 778981.066153972176835, 7682704.358439061790705, 0.0 ], [ 779257.722517628921196, 7682508.393322169780731, 0.0 ], [ 779580.48827835265547, 7682289.373586814850569, 0.0 ], [ 779811.035169445443898, 7681897.443563487380743, 0.0 ], [ 779822.562371893785894, 7681609.259727068245411, 0.0 ], [ 779834.089662474580109, 7681286.49388687312603, 0.0 ], [ 779822.562035892158747, 7680629.434917446225882, 0.0 ], [ 779880.198343924246728, 7679176.988637363538146, 0.0 ], [ 780179.909380900207907, 7678900.332104260101914, 0.0 ], [ 780583.366500921314582, 7678542.984026690945029, 0.0 ], [ 780871.55021636444144, 7678208.690791256725788, 0.0 ], [ 781067.515025845495984, 7677885.924888878129423, 0.0 ], [ 781102.096994431689382, 7677493.994934760034084, 0.0 ], [ 781067.514716060599312, 7676986.791492344811559, 0.0 ], [ 781067.514628680655733, 7676733.189765296876431, 0.0 ], [ 781159.733374677598476, 7676548.752113901078701, 0.0 ], [ 781344.170902325306088, 7676283.623022180981934, 0.0 ], [ 781367.225560965482146, 7676156.822100804187357, 0.0 ], [ 781632.354592762188986, 7675880.165580094791949, 0.0 ], [ 781851.374151523108594, 7675695.727885021828115, 0.0 ], [ 782116.503175029414706, 7675396.01666188519448, 0.0 ], [ 782254.831317352713086, 7675188.524292300455272, 0.0 ], [ 782254.83124554855749, 7674981.031970618292689, 0.0 ], [ 782174.13968550786376, 7674831.17648291029036, 0.0 ], [ 782116.502891945070587, 7674577.574776467867196, 0.0 ], [ 782139.557490597013384, 7674277.863637420348823, 0.0 ], [ 782220.248842881526798, 7674116.480692820623517, 0.0 ], [ 782414.546103515895084, 7673657.600478298030794, 0.0 ] ] ] ] } }
]
}
