{
"type": "FeatureCollection",
"name": "10_SAUDE_MBH",
"crs": { "type": "name", "properties": { "name": "urn:ogc:def:crs:EPSG::4674" } },
"features": [
{ "type": "Feature", "properties": { "Nome": "Hospital Regional de Mato Grosso do Sul", "Tipo": "Estadual", "Classe": "HOSPITAL" }, "geometry": { "type": "Point", "coordinates": [ -54.65438589999993, -20.5135448, 0.0 ] } },
{ "type": "Feature", "properties": { "Nome": "HEMOSUL", "Tipo": "Estadual", "Classe": "LAB" }, "geometry": { "type": "Point", "coordinates": [ -54.609215032584324, -20.46872394762573, 0.0 ] } },
{ "type": "Feature", "properties": { "Nome": "Farmácia Especializada (CAF)", "Tipo": "Estadual", "Classe": "FARM" }, "geometry": { "type": "Point", "coordinates": [ -54.60316341965089, -20.460845622639098, 0.0 ] } },
{ "type": "Feature", "properties": { "Nome": "Central Estadual de Abastecimento Farmacêutico", "Tipo": "Estadual", "Classe": "OUTRO" }, "geometry": { "type": "Point", "coordinates": [ -54.556720861463823, -20.451951417324501, 0.0 ] } },
{ "type": "Feature", "properties": { "Nome": "Central Estadual de Transplantes de Mato Grosso do Sul", "Tipo": "Estadual", "Classe": "OUTRO" }, "geometry": { "type": "Point", "coordinates": [ -54.603549269018188, -20.46133161050366, 0.0 ] } },
{ "type": "Feature", "properties": { "Nome": "Coordenadoria Estadual de Regulação da Assistência", "Tipo": "Estadual", "Classe": "ADM" }, "geometry": { "type": "Point", "coordinates": [ -54.602953699929301, -20.461170533785271, 0.0 ] } },
{ "type": "Feature", "properties": { "Nome": "LACEN/MS - Laboratório Central de Mato Grosso do Sul", "Tipo": "Estadual", "Classe": "LAB" }, "geometry": { "type": "Point", "coordinates": [ -54.620076030391793, -20.505628546538759, 0.0 ] } },
{ "type": "Feature", "properties": { "Nome": "Núcleo Hemoterápico do HRMS", "Tipo": "Estadual", "Classe": "LAB" }, "geometry": { "type": "Point", "coordinates": [ -54.654602201371468, -20.5128359768152, 0.0 ] } },
{ "type": "Feature", "properties": { "Nome": "Núcleo Hemoterápico do HU-UFMS", "Tipo": "Estadual", "Classe": "LAB" }, "geometry": { "type": "Point", "coordinates": [ -54.616772126349048, -20.499678612792511, 0.0 ] } },
{ "type": "Feature", "properties": { "Nome": "Núcleo Hemoterápico da Santa Casa", "Tipo": "Estadual", "Classe": "LAB" }, "geometry": { "type": "Point", "coordinates": [ -54.616779829006319, -20.45346001134109, 0.0 ] } },
{ "type": "Feature", "properties": { "Nome": "Organização de Procura de Órgãos (OPO)", "Tipo": "Estadual", "Classe": "OUTRO" }, "geometry": { "type": "Point", "coordinates": [ -54.616536741041969, -20.453955219831322, 0.0 ] } },
{ "type": "Feature", "properties": { "Nome": "Secretaria de Estado de Saúde", "Tipo": "Estadual", "Classe": "ADM" }, "geometry": { "type": "Point", "coordinates": [ -54.55666708606617, -20.45223793698705, 0.0 ] } },
{ "type": "Feature", "properties": { "Nome": "Núcleo Técnico-Científico do Programa Telessaúde Brasil Redes em MS", "Tipo": "Estadual", "Classe": "AMD" }, "geometry": { "type": "Point", "coordinates": [ -54.556688236939898, -20.452090963354568, 0.0 ] } },
{ "type": "Feature", "properties": { "Nome": "SAMU 192 Estadual de Mato Grosso do Sul", "Tipo": "Federal", "Classe": "ADM" }, "geometry": { "type": "Point", "coordinates": [ -54.551852969534615, -20.438591095187782, 0.0 ] } },
{ "type": "Feature", "properties": { "Nome": "Centro de Referência em Saúde do Trabalhador Estadual", "Tipo": "Estadual", "Classe": "ADM" }, "geometry": { "type": "Point", "coordinates": [ -54.619476150922679, -20.468540410234677, 0.0 ] } },
{ "type": "Feature", "properties": { "Nome": "Hospital Universitário", "Tipo": "Federal", "Classe": "HOSPITAL" }, "geometry": { "type": "Point", "coordinates": [ -54.616252911807017, -20.499392790561881, 0.0 ] } },
{ "type": "Feature", "properties": { "Nome": "SAMU/Unidade de Suporte Básico – USB Aero Rancho", "Tipo": "Municipal", "Classe": "SAMU" }, "geometry": { "type": "Point", "coordinates": [ -54.6489327885756, -20.522525522609889, 0.0 ] } },
{ "type": "Feature", "properties": { "Nome": "Unidade Móvel de Assistência Odontológica", "Tipo": "Municipal", "Classe": "OUTRO" }, "geometry": { "type": "Point", "coordinates": [ -54.59868145592592, -20.519211493554781, 0.0 ] } },
{ "type": "Feature", "properties": { "Nome": "Unidade de Saúde da Família Dr. Sebastião Luiz Nogueira - USF Los Angeles", "Tipo": "Municipal", "Classe": "USF" }, "geometry": { "type": "Point", "coordinates": [ -54.628457558989922, -20.549139259435591, 0.0 ] } },
{ "type": "Feature", "properties": { "Nome": "Coordenadoria de Vigilância de Saúde Ambiental", "Tipo": "Municipal", "Classe": "ADM" }, "geometry": { "type": "Point", "coordinates": [ -54.620643246028983, -20.507597240409819, 0.0 ] } },
{ "type": "Feature", "properties": { "Nome": "Distrito Sanitário da Região Centro", "Tipo": "Municipal", "Classe": "ADM" }, "geometry": { "type": "Point", "coordinates": [ -54.620697094609248, -20.507518961136281, 0.0 ] } },
{ "type": "Feature", "properties": { "Nome": "SAMU III Moreninha", "Tipo": "Municipal", "Classe": "SAMU" }, "geometry": { "type": "Point", "coordinates": [ -54.573455568270873, -20.555445742427789, 0.0 ] } },
{ "type": "Feature", "properties": { "Nome": "Unidade Móvel de Prevenção em Saúde Bucal", "Tipo": "Municipal", "Classe": "OUTRO" }, "geometry": { "type": "Point", "coordinates": [ -54.598669260611047, -20.51908559154878, 0.0 ] } },
{ "type": "Feature", "properties": { "Nome": "Coordenadoria de Vigilância Sanitária e Ambiental - CVSA", "Tipo": "Municipal", "Classe": "ADM" }, "geometry": { "type": "Point", "coordinates": [ -54.601934918995731, -20.46068554522698, 0.0 ] } },
{ "type": "Feature", "properties": { "Nome": "Coordenadoria de Rede de Assistência Odontológica - CRAO", "Tipo": "Municipal", "Classe": "ADM" }, "geometry": { "type": "Point", "coordinates": [ -54.601908383841327, -20.46070301293296, 0.0 ] } },
{ "type": "Feature", "properties": { "Nome": "Disque Saúde", "Tipo": "Municipal", "Classe": "ADM" }, "geometry": { "type": "Point", "coordinates": [ -54.601938497060047, -20.460644769190829, 0.0 ] } },
{ "type": "Feature", "properties": { "Nome": "Motolância SESAU", "Tipo": "Municipal", "Classe": "ADM" }, "geometry": { "type": "Point", "coordinates": [ -54.60194695774581, -20.46058580861424, 0.0 ] } },
{ "type": "Feature", "properties": { "Nome": "Secretaria Municipal de Saúde Pública - SESAU", "Tipo": "Municipal", "Classe": "ADM" }, "geometry": { "type": "Point", "coordinates": [ -54.60191130742912, -20.460589446007241, 0.0 ] } },
{ "type": "Feature", "properties": { "Nome": "Unidade de Acolhimento Adulto \"Pro Dia Nascer Feliz\"", "Tipo": "Municipal", "Classe": "OUTRO" }, "geometry": { "type": "Point", "coordinates": [ -54.601934185686979, -20.463848150715009, 0.0 ] } },
{ "type": "Feature", "properties": { "Nome": "Residência Terapêutica Moinho dos Ventos", "Tipo": "Municipal", "Classe": "OUTRO" }, "geometry": { "type": "Point", "coordinates": [ -54.628302131594808, -20.45018233923458, 0.0 ] } },
{ "type": "Feature", "properties": { "Nome": "Centro de Atenção Psicossocial Infantojuvenil III “Dr. Samuel Chaia Jacob”", "Tipo": "Municipal", "Classe": "CAPS" }, "geometry": { "type": "Point", "coordinates": [ -54.61382353227588, -20.449520670746701, 0.0 ] } },
{ "type": "Feature", "properties": { "Nome": "Unidade de Acolhimento Infantojuvenil “Arranjos para Assobio”", "Tipo": "Municipal", "Classe": "OUTRO" }, "geometry": { "type": "Point", "coordinates": [ -54.613831428943982, -20.449390753215908, 0.0 ] } },
{ "type": "Feature", "properties": { "Nome": "Unidade de Suporte Básico - USB Vila Almeida", "Tipo": "Municipal", "Classe": "UPA" }, "geometry": { "type": "Point", "coordinates": [ -54.657534702601538, -20.439843609458869, 0.0 ] } },
{ "type": "Feature", "properties": { "Nome": "Distrito Sanitário da Região Imbirussu", "Tipo": "Municipal", "Classe": "ADM" }, "geometry": { "type": "Point", "coordinates": [ -54.644505064983903, -20.451935887577459, 0.0 ] } },
{ "type": "Feature", "properties": { "Nome": "Distrito Sanitário da Região do Lagoa", "Tipo": "Municipal", "Classe": "ADM" }, "geometry": { "type": "Point", "coordinates": [ -54.644514885360827, -20.45197901018501, 0.0 ] } },
{ "type": "Feature", "properties": { "Nome": "Unidade de Suporte Básico - USB Coophavila", "Tipo": "Municipal", "Classe": "UPA" }, "geometry": { "type": "Point", "coordinates": [ -54.670969857203481, -20.5362415997086, 0.0 ] } },
{ "type": "Feature", "properties": { "Nome": "Almoxarifado SESAU", "Tipo": "Municipal", "Classe": "ADM" }, "geometry": { "type": "Point", "coordinates": [ -54.588068053778933, -20.43632269580695, 0.0 ] } },
{ "type": "Feature", "properties": { "Nome": "Coordenadoria de Assistência Farmacêutica - CAF", "Tipo": "Municipal", "Classe": "ADM" }, "geometry": { "type": "Point", "coordinates": [ -54.588062677877588, -20.436221089587882, 0.0 ] } },
{ "type": "Feature", "properties": { "Nome": "Centro de Especialidades Odontológicas Dr. José Carlos Ortolan Júnior - CEO II Nova Bahia", "Tipo": "Municipal", "Classe": "CEO" }, "geometry": { "type": "Point", "coordinates": [ -54.572402745509763, -20.410407864536129, 0.0 ] } },
{ "type": "Feature", "properties": { "Nome": "Centro de Doenças Infectoparasitárias - CEDIP (Hospital Dia)", "Tipo": "Municipal", "Classe": "HOSPITAL" }, "geometry": { "type": "Point", "coordinates": [ -54.572738847761308, -20.41057114292094, 0.0 ] } },
{ "type": "Feature", "properties": { "Nome": "Unidade de Saúde da Família Dr. Ademar Guedes de Souza - USF Mata do Jacinto", "Tipo": "Municipal", "Classe": "USF" }, "geometry": { "type": "Point", "coordinates": [ -54.567623890308738, -20.425466929043552, 0.0 ] } },
{ "type": "Feature", "properties": { "Nome": "Unidade de Saúde da Família Dra. Marly Anna Tatton Berg Gonçalves Pereira - USF Jardim Marabá", "Tipo": "Municipal", "Classe": "USF" }, "geometry": { "type": "Point", "coordinates": [ -54.581609437304863, -20.43440543936336, 0.0 ] } },
{ "type": "Feature", "properties": { "Nome": "Centro de Atenção Psicossocial III Marley Maciel Elias Massulo - CAPS Margarida", "Tipo": "Municipal", "Classe": "CAPS" }, "geometry": { "type": "Point", "coordinates": [ -54.592144799985469, -20.443526091608351, 0.0 ] } },
{ "type": "Feature", "properties": { "Nome": "Laboratório Central Municipal Dr. Alberto Jinsun Minei - LABCEM", "Tipo": "Municipal", "Classe": "LAB" }, "geometry": { "type": "Point", "coordinates": [ -54.595768891734707, -20.44145290894507, 0.0 ] } },
{ "type": "Feature", "properties": { "Nome": "Unidade de Saúde da Família Benedito Martins Gonçalves - USF Oliveira II", "Tipo": "Municipal", "Classe": "USF" }, "geometry": { "type": "Point", "coordinates": [ -54.660125476228153, -20.475247461406301, 0.0 ] } },
{ "type": "Feature", "properties": { "Nome": "Unidade de Saúde da Família Dr. Emilio de Alencar Garbeloti Neto - USF Tarumã", "Tipo": "Municipal", "Classe": "USF" }, "geometry": { "type": "Point", "coordinates": [ -54.674148903591657, -20.544761803925311, 0.0 ] } },
{ "type": "Feature", "properties": { "Nome": "Unidade de Saúde da Família Pastor Elizeu Feitosa de Alencar - USF São Conrado", "Tipo": "Municipal", "Classe": "USF" }, "geometry": { "type": "Point", "coordinates": [ -54.676766517400083, -20.497096085128611, 0.0 ] } },
{ "type": "Feature", "properties": { "Nome": "Policlínica Odontológica Dr. Mário G. da Costa Lima - Santa Emília", "Tipo": "Municipal", "Classe": "CEO" }, "geometry": { "type": "Point", "coordinates": [ -54.675114564002627, -20.50091600920927, 0.0 ] } },
{ "type": "Feature", "properties": { "Nome": "Unidade de Pronto Atendimento Dr. Carlos Vinícius Pistóia de Oliveira - UPA Leblon", "Tipo": "Municipal", "Classe": "UPA" }, "geometry": { "type": "Point", "coordinates": [ -54.652288632337147, -20.49283820156267, 0.0 ] } },
{ "type": "Feature", "properties": { "Nome": "Unidade de Suporte Básico - UPA Leblon", "Tipo": "Municipal", "Classe": "UPA" }, "geometry": { "type": "Point", "coordinates": [ -54.652288618540169, -20.492838205368152, 0.0 ] } },
{ "type": "Feature", "properties": { "Nome": "Unidade de Saúde da Família Dr. Hirose Adania - USF Bonança", "Tipo": "Municipal", "Classe": "USF" }, "geometry": { "type": "Point", "coordinates": [ -54.661143311049543, -20.49375731165625, 0.0 ] } },
{ "type": "Feature", "properties": { "Nome": "Unidade de Saúde da Família Dr. Nelson Assef Buainain - USF Jardim Antártica", "Tipo": "Municipal", "Classe": "USF" }, "geometry": { "type": "Point", "coordinates": [ -54.663187998596577, -20.499414603322212, 0.0 ] } },
{ "type": "Feature", "properties": { "Nome": "Unidade Básica de Saúde Dr. Ivan Hidelbrand da Costa - UBS Buriti", "Tipo": "Municipal", "Classe": "UBS" }, "geometry": { "type": "Point", "coordinates": [ -54.670981997943223, -20.49049219714157, 0.0 ] } },
{ "type": "Feature", "properties": { "Nome": "Unidade de Saúde da Família Dr. Alfredo Neder - USF Coophavila II", "Tipo": "Municipal", "Classe": "USF" }, "geometry": { "type": "Point", "coordinates": [ -54.670948205283082, -20.535950995510941, 0.0 ] } },
{ "type": "Feature", "properties": { "Nome": "Unidade de Saúde da Família USF Maria Ivone de Oliveira Nascimento Arakaki - Vila Fernanda", "Tipo": "Municipal", "Classe": "USF" }, "geometry": { "type": "Point", "coordinates": [ -54.686461652326969, -20.51581241506436, 0.0 ] } },
{ "type": "Feature", "properties": { "Nome": "Clínica da Família Maria de Lourdes dos Santos - Portal Caiobá", "Tipo": "Municipal", "Classe": "CF" }, "geometry": { "type": "Point", "coordinates": [ -54.67943959309234, -20.5233263328244, 0.0 ] } },
{ "type": "Feature", "properties": { "Nome": "Unidade Básica de Saúde Dr. Alberto Neder - UBS Caiçara", "Tipo": "Municipal", "Classe": "UBS" }, "geometry": { "type": "Point", "coordinates": [ -54.646381508653292, -20.482020393906762, 0.0 ] } },
{ "type": "Feature", "properties": { "Nome": "Unidade de Saúde da Família Dr. Hélio Martins Coelho - USF Batistão", "Tipo": "Municipal", "Classe": "USF" }, "geometry": { "type": "Point", "coordinates": [ -54.665970798122039, -20.52126299891831, 0.0 ] } },
{ "type": "Feature", "properties": { "Nome": "Unidade de Suporte Avançado - USA 4 - Aeroporto", "Tipo": "Municipal", "Classe": "USA" }, "geometry": { "type": "Point", "coordinates": [ -54.66332315359351, -20.464875644651109, 0.0 ] } },
{ "type": "Feature", "properties": { "Nome": "Unidade Básica de Saúde Dr. Nicolau Fragelli - UBS Lar do Trabalhador", "Tipo": "Municipal", "Classe": "UBS" }, "geometry": { "type": "Point", "coordinates": [ -54.644479009344643, -20.45199661569302, 0.0 ] } },
{ "type": "Feature", "properties": { "Nome": "Unidade Básica de Saúde Dra. Eleonora Moura Quevedo Gomes – UBS Silvia Regina", "Tipo": "Municipal", "Classe": "UBS" }, "geometry": { "type": "Point", "coordinates": [ -54.669025398979343, -20.44607150138814, 0.0 ] } },
{ "type": "Feature", "properties": { "Nome": "Centro de Especialidades Odontológicas Prof. Dr. Rudá A. Santos - Silvia Regina - CEO II", "Tipo": "Municipal", "Classe": "CEO" }, "geometry": { "type": "Point", "coordinates": [ -54.670041883021362, -20.445885140222419, 0.0 ] } },
{ "type": "Feature", "properties": { "Nome": "Unidade Especializada em Reabilitação e Diagnóstico - UERD", "Tipo": "Municipal", "Classe": "OUTRO" }, "geometry": { "type": "Point", "coordinates": [ -54.653299435548973, -20.44049133879636, 0.0 ] } },
{ "type": "Feature", "properties": { "Nome": "Centro de Atenção Psicossocial - Vila Almeida - CAPS III", "Tipo": "Municipal", "Classe": "CAPS" }, "geometry": { "type": "Point", "coordinates": [ -54.653288670551909, -20.440240379246511, 0.0 ] } },
{ "type": "Feature", "properties": { "Nome": "Unidade de Saúde da Família Dr. Albino Coimbra Filho - USF Santa Carmélia", "Tipo": "Municipal", "Classe": "USF" }, "geometry": { "type": "Point", "coordinates": [ -54.652107365398358, -20.43031607233582, 0.0 ] } },
{ "type": "Feature", "properties": { "Nome": "Unidade de Saúde da Família Dr. Syrzil Wilson Macksoud - USF Sírio Libanês", "Tipo": "Municipal", "Classe": "USF" }, "geometry": { "type": "Point", "coordinates": [ -54.658471699999957, -20.426480262462029, 0.0 ] } },
{ "type": "Feature", "properties": { "Nome": "Unidade Básica de Saúde Dr. Vespasiano Barbosa Martins - UBS Popular", "Tipo": "Municipal", "Classe": "UBS" }, "geometry": { "type": "Point", "coordinates": [ -54.704469900000028, -20.452816, 0.0 ] } },
{ "type": "Feature", "properties": { "Nome": "Unidade de Saúde da Família Dr. Herbert Rabelo Calado - USF Aero Itália", "Tipo": "Municipal", "Classe": "USF" }, "geometry": { "type": "Point", "coordinates": [ -54.686909431257007, -20.44228511371178, 0.0 ] } },
{ "type": "Feature", "properties": { "Nome": "Unidade de Saúde da Família Ana Maria do Couto", "Tipo": "Municipal", "Classe": "USF" }, "geometry": { "type": "Point", "coordinates": [ -54.677752896801387, -20.442655394778551, 0.0 ] } },
{ "type": "Feature", "properties": { "Nome": "Unidade de Pronto Atendimento Dr. Alessandro Martins de Souza Silva – UPA Vila Almeida", "Tipo": "Municipal", "Classe": "UPA" }, "geometry": { "type": "Point", "coordinates": [ -54.657650283377492, -20.439875238340779, 0.0 ] } },
{ "type": "Feature", "properties": { "Nome": "Unidade de Saúde da Família Dr. Jurandyr de Castro Coimbra - USF Zé Pereira", "Tipo": "Municipal", "Classe": "USF" }, "geometry": { "type": "Point", "coordinates": [ -54.673036099999983, -20.4324893, 0.0 ] } },
{ "type": "Feature", "properties": { "Nome": "Unidade de Saúde da Família Dra. Sumie Ikeda Rodrigues - USF Serradinho", "Tipo": "Municipal", "Classe": "USF" }, "geometry": { "type": "Point", "coordinates": [ -54.673036099999983, -20.4324893, 0.0 ] } },
{ "type": "Feature", "properties": { "Nome": "Centro Ortopédico Municipal - CENORT", "Tipo": "Municipal", "Classe": "CO" }, "geometry": { "type": "Point", "coordinates": [ -54.619394422694029, -20.447494581996501, 0.0 ] } },
{ "type": "Feature", "properties": { "Nome": "CEM Presidente Jânio da Silva Quadros - Centro de Especialidades Médicas", "Tipo": "Municipal", "Classe": "CEM" }, "geometry": { "type": "Point", "coordinates": [ -54.619343899999947, -20.4474046, 0.0 ] } },
{ "type": "Feature", "properties": { "Nome": "Centro de Especialidades Odontológicas Dr. Nasri Siufi - CEO III - CEM", "Tipo": "Municipal", "Classe": "CEO" }, "geometry": { "type": "Point", "coordinates": [ -54.6193, -20.447476699999989, 0.0 ] } },
{ "type": "Feature", "properties": { "Nome": "Centro de Atendimento da Mulher - CEAM", "Tipo": "Municipal", "Classe": "OUTRO" }, "geometry": { "type": "Point", "coordinates": [ -54.610696571676847, -20.469715964381042, 0.0 ] } },
{ "type": "Feature", "properties": { "Nome": "Centro de Apoio e Diagnóstico Municipal - CADIM", "Tipo": "Municipal", "Classe": "ADM" }, "geometry": { "type": "Point", "coordinates": [ -54.619337637009579, -20.44743361752661, 0.0 ] } },
{ "type": "Feature", "properties": { "Nome": "Ambulatório de Saúde Mental", "Tipo": "Municipal", "Classe": "OUTRO" }, "geometry": { "type": "Point", "coordinates": [ -54.619340409888011, -20.447473691514961, 0.0 ] } },
{ "type": "Feature", "properties": { "Nome": "Unidade Básica de Saúde Dr. Jair Garcia de Freitas – UBS 26 de Agosto", "Tipo": "Municipal", "Classe": "UBS" }, "geometry": { "type": "Point", "coordinates": [ -54.617310499999967, -20.44439270000003, 0.0 ] } },
{ "type": "Feature", "properties": { "Nome": "Centro de Atenção Psicossocial Afrodite Dóris de Conti - CAPS III", "Tipo": "Municipal", "Classe": "CAPS" }, "geometry": { "type": "Point", "coordinates": [ -54.613702858343252, -20.44948328649761, 0.0 ] } },
{ "type": "Feature", "properties": { "Nome": "Unidade de Saúde da Família - USF Vila Corumbá", "Tipo": "Municipal", "Classe": "USF" }, "geometry": { "type": "Point", "coordinates": [ -54.629685880941423, -20.4474292776104, 0.0 ] } },
{ "type": "Feature", "properties": { "Nome": "Centro de Atenção Psicossocial Fátima M. Medeiros - CAPS III AD", "Tipo": "Municipal", "Classe": "CAPS" }, "geometry": { "type": "Point", "coordinates": [ -54.606825960326823, -20.469974461493429, 0.0 ] } },
{ "type": "Feature", "properties": { "Nome": "Central de Regulação do SAMU", "Tipo": "Municipal", "Classe": "ADM" }, "geometry": { "type": "Point", "coordinates": [ -54.6026283, -20.4612658, 0.0 ] } },
{ "type": "Feature", "properties": { "Nome": "Centro de Referência em Saúde do Trabalhador - CEREST", "Tipo": "Municipal", "Classe": "OUTRO" }, "geometry": { "type": "Point", "coordinates": [ -54.593349, -20.456879, 0.0 ] } },
{ "type": "Feature", "properties": { "Nome": "Unidade de Saúde da Família - USF Vila Carvalho", "Tipo": "Municipal", "Classe": "USF" }, "geometry": { "type": "Point", "coordinates": [ -54.6218783, -20.47539470000001, 0.0 ] } },
{ "type": "Feature", "properties": { "Nome": "Centro de Testagem e Aconselhamento - CTA", "Tipo": "Municipal", "Classe": "CTA" }, "geometry": { "type": "Point", "coordinates": [ -54.620987943211553, -20.470807126752039, 0.0 ] } },
{ "type": "Feature", "properties": { "Nome": "Unidade de Pronto Atendimento Aparecida Gonçalves Saraiva - UPA Universitário", "Tipo": "Municipal", "Classe": "UPA" }, "geometry": { "type": "Point", "coordinates": [ -54.598436099999958, -20.5254344, 0.0 ] } },
{ "type": "Feature", "properties": { "Nome": "Unidade Básica de Saúde Dr. Germano Barros de Souza – UBS Universitário", "Tipo": "Municipal", "Classe": "UBS" }, "geometry": { "type": "Point", "coordinates": [ -54.598574094689418, -20.51952856509131, 0.0 ] } },
{ "type": "Feature", "properties": { "Nome": "SAMU/UPA Aparecida Gonçalves Saraiva – Universitário", "Tipo": "Municipal", "Classe": "SAMU" }, "geometry": { "type": "Point", "coordinates": [ -54.598377335707887, -20.525468307038111, 0.0 ] } },
{ "type": "Feature", "properties": { "Nome": "Policlínica Odontológica Dr. Hélio Yoshiacki Ikeziri - Universitário", "Tipo": "Municipal", "Classe": "CEO" }, "geometry": { "type": "Point", "coordinates": [ -54.598585, -20.519188, 0.0 ] } },
{ "type": "Feature", "properties": { "Nome": "Unidade de Saúde da Família Dr. Edson Quintino Mendes – USF Jardim Itamaracá", "Tipo": "Municipal", "Classe": "USF" }, "geometry": { "type": "Point", "coordinates": [ -54.57760219999998, -20.518136099999978, 0.0 ] } },
{ "type": "Feature", "properties": { "Nome": "SAMU Dr. Antônio Pereira – CRS Tiradentes", "Tipo": "Municipal", "Classe": "SAMU" }, "geometry": { "type": "Point", "coordinates": [ -54.580829, -20.480802, 0.0 ] } },
{ "type": "Feature", "properties": { "Nome": "Centro Regional de Saúde Dr. Antônio Pereira – CRS Tiradentes", "Tipo": "Municipal", "Classe": "CRS" }, "geometry": { "type": "Point", "coordinates": [ -54.580829, -20.480802, 0.0 ] } },
{ "type": "Feature", "properties": { "Nome": "Unidade de Saúde da Família Dr. Carlos Alberto Jurgielewicz - USF Cristo Redentor", "Tipo": "Municipal", "Classe": "USF" }, "geometry": { "type": "Point", "coordinates": [ -54.562938532836348, -20.50446086982695, 0.0 ] } },
{ "type": "Feature", "properties": { "Nome": "Unidade de Saúde da Família Dr. Edgar Pedro Ralf Sperb - USF Arnaldo Estevão de Figueiredo", "Tipo": "Municipal", "Classe": "USF" }, "geometry": { "type": "Point", "coordinates": [ -54.564195147475772, -20.472718786083199, 0.0 ] } },
{ "type": "Feature", "properties": { "Nome": "Unidade de Saúde da Família Dr. Vicente Fragelli - USF Cidade Morena", "Tipo": "Municipal", "Classe": "USF" }, "geometry": { "type": "Point", "coordinates": [ -54.588725233452656, -20.550895320233192, 0.0 ] } },
{ "type": "Feature", "properties": { "Nome": "Centro de Especialidades Odontológicas Dra. Maria de Lourdes Massaco Minei - CEO I", "Tipo": "Municipal", "Classe": "CEO" }, "geometry": { "type": "Point", "coordinates": [ -54.589297876185711, -20.55021839789789, 0.0 ] } },
{ "type": "Feature", "properties": { "Nome": "Unidade de Saúde da Família Dr. Judson Tadeu Ribas - USF Moreninha III", "Tipo": "Municipal", "Classe": "USF" }, "geometry": { "type": "Point", "coordinates": [ -54.5744007, -20.55600140000001, 0.0 ] } },
{ "type": "Feature", "properties": { "Nome": "Unidade de Pronto Atendimento Joel Rodrigues Rocha - UPA Moreninha III", "Tipo": "Municipal", "Classe": "UPA" }, "geometry": { "type": "Point", "coordinates": [ -54.573392199999958, -20.5554919, 0.0 ] } },
{ "type": "Feature", "properties": { "Nome": "Unidade de Saúde da Família Maria Aparecida Pedrossian - MAPE", "Tipo": "Municipal", "Classe": "USF" }, "geometry": { "type": "Point", "coordinates": [ -54.551376254313979, -20.472893350183821, 0.0 ] } },
{ "type": "Feature", "properties": { "Nome": "Unidade Básica de Saúde Dr. Astrogildo Carmona - UBS Carlota", "Tipo": "Municipal", "Classe": "UBS" }, "geometry": { "type": "Point", "coordinates": [ -54.605065499999981, -20.490548100000019, 0.0 ] } },
{ "type": "Feature", "properties": { "Nome": "Distrito Sanitário da Região Bandeira", "Tipo": "Municipal", "Classe": "ADM" }, "geometry": { "type": "Point", "coordinates": [ -54.60503329999996, -20.4908286, 0.0 ] } },
{ "type": "Feature", "properties": { "Nome": "Unidade Básica de Saúde Dr. Jorge David Nasser – UBS Jockey Club", "Tipo": "Municipal", "Classe": "UBS" }, "geometry": { "type": "Point", "coordinates": [ -54.623718958666807, -20.49507814883243, 0.0 ] } },
{ "type": "Feature", "properties": { "Nome": "Unidade de Saúde da Família Jardim Nova Esperança", "Tipo": "Municipal", "Classe": "USF" }, "geometry": { "type": "Point", "coordinates": [ -54.634793249255793, -20.502795584493899, 0.0 ] } },
{ "type": "Feature", "properties": { "Nome": "Unidade Básica de Saúde Dr. Celso Lacerda de Azevedo - UBS Pioneiros", "Tipo": "Municipal", "Classe": "UBS" }, "geometry": { "type": "Point", "coordinates": [ -54.609493799999989, -20.51503580000001, 0.0 ] } },
{ "type": "Feature", "properties": { "Nome": "SAMU/Unidade de Suporte Avançado – USA 3 Pioneiros", "Tipo": "Municipal", "Classe": "SAMU" }, "geometry": { "type": "Point", "coordinates": [ -54.610651557833442, -20.51370325994446, 0.0 ] } },
{ "type": "Feature", "properties": { "Nome": "Unidade de Saúde da Família Dra. Jeanne Elizabeth Wanderley Tobaru – USF Jardim Botafogo", "Tipo": "Municipal", "Classe": "USF" }, "geometry": { "type": "Point", "coordinates": [ -54.626651697229377, -20.523624373159191, 0.0 ] } },
{ "type": "Feature", "properties": { "Nome": "Centro de Controle de Zoonoses Dra. Rita de Cássia Salmazo - CCZ", "Tipo": "Municipal", "Classe": "CCZ" }, "geometry": { "type": "Point", "coordinates": [ -54.620643919651052, -20.507508627078121, 0.0 ] } },
{ "type": "Feature", "properties": { "Nome": "Serviço de Verificação de Óbito (SVO)", "Tipo": "Municipal", "Classe": "SVO" }, "geometry": { "type": "Point", "coordinates": [ -54.62091182634844, -20.506867062465869, 0.0 ] } },
{ "type": "Feature", "properties": { "Nome": "Unidade de Saúde da Família Dr. Benjamim Asato – USF Parque do Sol", "Tipo": "Municipal", "Classe": "USF" }, "geometry": { "type": "Point", "coordinates": [ -54.651938139783361, -20.55023240214874, 0.0 ] } },
{ "type": "Feature", "properties": { "Nome": "Unidade de Saúde da Família Dr. Evandro M. de Arruda - USF Dom Antônio Barbosa", "Tipo": "Municipal", "Classe": "USF" }, "geometry": { "type": "Point", "coordinates": [ -54.648758891366192, -20.55554079525773, 0.0 ] } },
{ "type": "Feature", "properties": { "Nome": "Unidade Básica de Saúde Guanandy “Engenheiro Arthur Okama” – UBS Dona Neta", "Tipo": "Municipal", "Classe": "UBS" }, "geometry": { "type": "Point", "coordinates": [ -54.642023237896481, -20.496050992122559, 0.0 ] } },
{ "type": "Feature", "properties": { "Nome": "Centro de Especialidade Infantil Dr. José Antônio Paniago - CEI", "Tipo": "Municipal", "Classe": "OUTRO" }, "geometry": { "type": "Point", "coordinates": [ -54.646156086313241, -20.495931126923679, 0.0 ] } },
{ "type": "Feature", "properties": { "Nome": "Centro de Especialidades Odontológicas Dr. Édio Figueiredo - Guanandi - CEO II", "Tipo": "Municipal", "Classe": "CEO" }, "geometry": { "type": "Point", "coordinates": [ -54.64206126271587, -20.49612643262391, 0.0 ] } },
{ "type": "Feature", "properties": { "Nome": "Unidade de Saúde da Família Jardim Paulo Coelho Machado", "Tipo": "Municipal", "Classe": "USF" }, "geometry": { "type": "Point", "coordinates": [ -54.602499499999958, -20.5540814, 0.0 ] } },
{ "type": "Feature", "properties": { "Nome": "Unidade de Saúde da Família Dr. Wagner Jorge Bortotto Garcia - USF Mário Covas", "Tipo": "Municipal", "Classe": "USF" }, "geometry": { "type": "Point", "coordinates": [ -54.604137899999969, -20.543027400000032, 0.0 ] } },
{ "type": "Feature", "properties": { "Nome": "Clínica da Família Dr. Mauro Rogério de Barros Wanderley - CF Iracy Coelho", "Tipo": "Municipal", "Classe": "CF" }, "geometry": { "type": "Point", "coordinates": [ -54.644667, -20.530754, 0.0 ] } },
{ "type": "Feature", "properties": { "Nome": "CCEV - Coordenadoria de Controle de Endemias Vetoriais", "Tipo": "Municipal", "Classe": "ADM" }, "geometry": { "type": "Point", "coordinates": [ -54.613991243625563, -20.48014036342321, 0.0 ] } },
{ "type": "Feature", "properties": { "Nome": "Unidade de Saúde da Família Dr. Walfrido F. Azambuja – USF Alves Pereira", "Tipo": "Municipal", "Classe": "USF" }, "geometry": { "type": "Point", "coordinates": [ -54.602526299999958, -20.5270837, 0.0 ] } },
{ "type": "Feature", "properties": { "Nome": "Unidade de Saúde da Família Dr. Olímpio Cavalheiro", "Tipo": "Municipal", "Classe": "USF" }, "geometry": { "type": "Point", "coordinates": [ -54.620037, -20.535637, 0.0 ] } },
{ "type": "Feature", "properties": { "Nome": "Policlínica Odontológica Dr. Gerson Hiroshi Yoshinari - CAIC", "Tipo": "Municipal", "Classe": "CEO" }, "geometry": { "type": "Point", "coordinates": [ -54.652894141723117, -20.509534684512541, 0.0 ] } },
{ "type": "Feature", "properties": { "Nome": "Unidade Básica de Saúde da Família Dr. Nelson Tokuei Simabukuro - Aero Rancho IV", "Tipo": "Municipal", "Classe": "UBSF" }, "geometry": { "type": "Point", "coordinates": [ -54.64608870660193, -20.511506917377702, 0.0 ] } },
{ "type": "Feature", "properties": { "Nome": "Unidade Básica de Saúde Aero Rancho - UBS Dr. João Pereira da Rosa", "Tipo": "Municipal", "Classe": "USF" }, "geometry": { "type": "Point", "coordinates": [ -54.648922, -20.522498, 0.0 ] } },
{ "type": "Feature", "properties": { "Nome": "USF Dra. Régia Jussara Fagundes de Barros - Aero Rancho Granja", "Tipo": "Municipal", "Classe": "USF" }, "geometry": { "type": "Point", "coordinates": [ -54.641078599999958, -20.518716, 0.0 ] } },
{ "type": "Feature", "properties": { "Nome": "Centro de Atenção Psicossocial III - CAPS III Aero Rancho", "Tipo": "Municipal", "Classe": "CAPS" }, "geometry": { "type": "Point", "coordinates": [ -54.649085139401549, -20.522401355529581, 0.0 ] } },
{ "type": "Feature", "properties": { "Nome": "Centro Regional de Saúde Dr. João Pereira da Rosa - CRS Aero Rancho", "Tipo": "Municipal", "Classe": "CRS" }, "geometry": { "type": "Point", "coordinates": [ -54.649095586561259, -20.522498362187871, 0.0 ] } },
{ "type": "Feature", "properties": { "Nome": "Distrito Sanitário da Região do Prosa", "Tipo": "Municipal", "Classe": "ADM" }, "geometry": { "type": "Point", "coordinates": [ -54.572375012721857, -20.410946207806969, 0.0 ] } },
{ "type": "Feature", "properties": { "Nome": "SAMU/Unidade de Suporte Básico - USB Nova Bahia", "Tipo": "Municipal", "Classe": "SAMU" }, "geometry": { "type": "Point", "coordinates": [ -54.572274479557592, -20.410551206287479, 0.0 ] } },
{ "type": "Feature", "properties": { "Nome": "Unidade de Saúde da Família Conselheiro de Saúde Edney Arantes de Campos - USF Nova Bahia", "Tipo": "Municipal", "Classe": "USF" }, "geometry": { "type": "Point", "coordinates": [ -54.572596875520738, -20.410394059750491, 0.0 ] } },
{ "type": "Feature", "properties": { "Nome": "Unidade Básica de Saúde Bairro Coronel Antonino", "Tipo": "Municipal", "Classe": "UBS" }, "geometry": { "type": "Point", "coordinates": [ -54.599568767506788, -20.431217298545501, 0.0 ] } },
{ "type": "Feature", "properties": { "Nome": "Unidade de Pronto Atendimento Walfrido Arruda – UPA Coronel Antonino", "Tipo": "Municipal", "Classe": "UPA" }, "geometry": { "type": "Point", "coordinates": [ -54.600983150196008, -20.431496089278461, 0.0 ] } },
{ "type": "Feature", "properties": { "Nome": "Unidade de Suporte Avançado - USA 2 Coronel Antonino", "Tipo": "Municipal", "Classe": "USA" }, "geometry": { "type": "Point", "coordinates": [ -54.601066223150113, -20.431415689759589, 0.0 ] } },
{ "type": "Feature", "properties": { "Nome": "Unidade de Suporte Básico – USB Coronel Antonino", "Tipo": "Municipal", "Classe": "UPA" }, "geometry": { "type": "Point", "coordinates": [ -54.600799334815221, -20.43144272703648, 0.0 ] } },
{ "type": "Feature", "properties": { "Nome": "Unidade Básica de Saúde Dr. William Macksoud – UBS Estrela do Sul", "Tipo": "Municipal", "Classe": "UBS" }, "geometry": { "type": "Point", "coordinates": [ -54.596180219492517, -20.418059217044419, 0.0 ] } },
{ "type": "Feature", "properties": { "Nome": "Centro de Referência à Saúde do Homem - Dr. Etiene de Albuquerque Palhano – CRSH", "Tipo": "Municipal", "Classe": "OUTRO" }, "geometry": { "type": "Point", "coordinates": [ -54.599651600844858, -20.43102710269029, 0.0 ] } },
{ "type": "Feature", "properties": { "Nome": "Unidade de Saúde da Família Dr. Elias Nasser Neto (Lilito) – USF José Abrão", "Tipo": "Municipal", "Classe": "USF" }, "geometry": { "type": "Point", "coordinates": [ -54.661295004022932, -20.41747922033526, 0.0 ] } },
{ "type": "Feature", "properties": { "Nome": "Unidade de Saúde da Família Pedro Felix de Souza - USF Jardim Paradiso", "Tipo": "Municipal", "Classe": "USF" }, "geometry": { "type": "Point", "coordinates": [ -54.628601248251691, -20.432710808202259, 0.0 ] } },
{ "type": "Feature", "properties": { "Nome": "Unidade de Saúde da Família Dra. Alda Garcia de Oliveira – USF Jardim Azaleia", "Tipo": "Municipal", "Classe": "USF" }, "geometry": { "type": "Point", "coordinates": [ -54.642786341594679, -20.422545199359831, 0.0 ] } },
{ "type": "Feature", "properties": { "Nome": "Unidade de Saúde da Família Vila Cox", "Tipo": "Municipal", "Classe": "USF" }, "geometry": { "type": "Point", "coordinates": [ -54.642638974114718, -20.412046070200962, 0.0 ] } },
{ "type": "Feature", "properties": { "Nome": "Unidade de Saúde da Família Dr. Milton Kojo Chinen – USF Vila Nasser", "Tipo": "Municipal", "Classe": "USF" }, "geometry": { "type": "Point", "coordinates": [ -54.631593937894593, -20.416385902136302, 0.0 ] } },
{ "type": "Feature", "properties": { "Nome": "Clínica da Família Dra. Márcia Guedes de Sá Earp - Nova Lima", "Tipo": "Municipal", "Classe": "CF" }, "geometry": { "type": "Point", "coordinates": [ -54.572070613254702, -20.401571837100828, 0.0 ] } },
{ "type": "Feature", "properties": { "Nome": "Unidade de Saúde da Família Mestre José Alberto Veronesse - USF", "Tipo": "Municipal", "Classe": "USF" }, "geometry": { "type": "Point", "coordinates": [ -54.617497557580023, -20.40484710195954, 0.0 ] } },
{ "type": "Feature", "properties": { "Nome": "Unidade de Saúde da Família  São Benedito", "Tipo": "Municipal", "Classe": "USF" }, "geometry": { "type": "Point", "coordinates": [ -54.619352726896707, -20.424499719874831, 0.0 ] } },
{ "type": "Feature", "properties": { "Nome": "SAMU Anhnaduí", "Tipo": "Municipal", "Classe": "SAMU" }, "geometry": { "type": "Point", "coordinates": [ -54.509546332656981, -20.98712771440238, 0.0 ] } },
{ "type": "Feature", "properties": { "Nome": "Unidade de Saúde da Família  Dr. Bento Assis Machado", "Tipo": "Municipal", "Classe": "USF" }, "geometry": { "type": "Point", "coordinates": [ -54.509532614528673, -20.987151956191301, 0.0 ] } },
{ "type": "Feature", "properties": { "Nome": "Unidade de Saúde da Família Dr. Maria Josefá de Pauli - USF ", "Tipo": "Municipal", "Classe": "USF" }, "geometry": { "type": "Point", "coordinates": [ -54.531955492762123, -20.625801164864821, 0.0 ] } },
{ "type": "Feature", "properties": { "Nome": "UPA Santa Mônica", "Tipo": "Municipal", "Classe": "UPA" }, "geometry": { "type": "Point", "coordinates": [ -54.710058725657603, -20.456085229806849, 0.0 ] } },
{ "type": "Feature", "properties": { "Nome": "CRS Gunter Hrans", "Tipo": "Municipal", "Classe": "CRS" }, "geometry": { "type": "Point", "coordinates": [ -54.572391222526193, -20.410461695412391, 0.0 ] } },
{ "type": "Feature", "properties": { "Nome": "Unidade de Saúde da Família Dr. Antônio Pereira - USF Tiradentes", "Tipo": "Municipal", "Classe": "USF" }, "geometry": { "type": "Point", "coordinates": [ -54.580859132913581, -20.480807116956811, 0.0 ] } },
{ "type": "Feature", "properties": { "Nome": "Unidade de Saúde da Família Dra. Sani YDIA Souza Wolf - USF Macaubas", "Tipo": "Municipal", "Classe": "USF" }, "geometry": { "type": "Point", "coordinates": [ -54.619136802045468, -20.548531325650099, 0.0 ] } },
{ "type": "Feature", "properties": { "Nome": "Unidade de Suporte Avançado - USA 3 Pioneiros", "Tipo": "Municipal", "Classe": "USA" }, "geometry": { "type": "Point", "coordinates": [ -54.60192327881537, -20.46063791672707, 0.0 ] } },
{ "type": "Feature", "properties": { "Nome": "Distrito Sanitário Região do Anhanduizinho", "Tipo": "Municipal", "Classe": "ADM" }, "geometry": { "type": "Point", "coordinates": [ -54.598107201598673, -20.52545308614669, 0.0 ] } },
{ "type": "Feature", "properties": { "Nome": "Distrito Sanitário Região do Segredo", "Tipo": "Municipal", "Classe": "ADM" }, "geometry": { "type": "Point", "coordinates": [ -54.572495699582383, -20.410923600317201, 0.0 ] } },
{ "type": "Feature", "properties": { "Nome": "Residência Terapêutica Dom Quixote", "Tipo": "Municipal", "Classe": "OUTRO" }, "geometry": { "type": "Point", "coordinates": [ -54.593758802945082, -20.454296429611698, 0.0 ] } },
{ "type": "Feature", "properties": { "Nome": "Residência Terapêutica II - Miguel de Cervantes", "Tipo": "Municipal", "Classe": "OUTRO" }, "geometry": { "type": "Point", "coordinates": [ -54.584579857854912, -20.441185377880071, 0.0 ] } },
{ "type": "Feature", "properties": { "Nome": "Unidade de Saúde da Família Dra. Sumie Ikeda Rodrigues - USF Serradinho", "Tipo": "Municipal", "Classe": "UBSF" }, "geometry": { "type": "Point", "coordinates": [ -54.684418361797782, -20.458804807850399, 0.0 ] } }
]
}
